[
  {
    "code": "032018",
    "prefecture_code": 3,
    "name": "盛岡市",
    "capital": true,
    "name_kana": "モリオカシ"
  },
  {
    "code": "032026",
    "prefecture_code": 3,
    "name": "宮古市",
    "capital": false,
    "name_kana": "ミヤコシ"
  },
  {
    "code": "032034",
    "prefecture_code": 3,
    "name": "大船渡市",
    "capital": false,
    "name_kana": "オオフナトシ"
  },
  {
    "code": "032051",
    "prefecture_code": 3,
    "name": "花巻市",
    "capital": false,
    "name_kana": "ハナマキシ"
  },
  {
    "code": "032069",
    "prefecture_code": 3,
    "name": "北上市",
    "capital": false,
    "name_kana": "キタカミシ"
  },
  {
    "code": "032077",
    "prefecture_code": 3,
    "name": "久慈市",
    "capital": false,
    "name_kana": "クジシ"
  },
  {
    "code": "032085",
    "prefecture_code": 3,
    "name": "遠野市",
    "capital": false,
    "name_kana": "トオノシ"
  },
  {
    "code": "032093",
    "prefecture_code": 3,
    "name": "一関市",
    "capital": false,
    "name_kana": "イチノセキシ"
  },
  {
    "code": "032107",
    "prefecture_code": 3,
    "name": "陸前高田市",
    "capital": false,
    "name_kana": "リクゼンタカタシ"
  },
  {
    "code": "032115",
    "prefecture_code": 3,
    "name": "釜石市",
    "capital": false,
    "name_kana": "カマイシシ"
  },
  {
    "code": "032131",
    "prefecture_code": 3,
    "name": "二戸市",
    "capital": false,
    "name_kana": "ニノヘシ"
  },
  {
    "code": "032140",
    "prefecture_code": 3,
    "name": "八幡平市",
    "capital": false,
    "name_kana": "ハチマンタイシ"
  },
  {
    "code": "032158",
    "prefecture_code": 3,
    "name": "奥州市",
    "capital": false,
    "name_kana": "オウシュウシ"
  },
  {
    "code": "032166",
    "prefecture_code": 3,
    "name": "滝沢市",
    "capital": false,
    "name_kana": "タキザワシ"
  },
  {
    "code": "033014",
    "prefecture_code": 3,
    "name": "雫石町",
    "capital": false,
    "name_kana": "シズクイシチョウ"
  },
  {
    "code": "033022",
    "prefecture_code": 3,
    "name": "葛巻町",
    "capital": false,
    "name_kana": "クズマキマチ"
  },
  {
    "code": "033031",
    "prefecture_code": 3,
    "name": "岩手町",
    "capital": false,
    "name_kana": "イワテマチ"
  },
  {
    "code": "033219",
    "prefecture_code": 3,
    "name": "紫波町",
    "capital": false,
    "name_kana": "シワチョウ"
  },
  {
    "code": "033227",
    "prefecture_code": 3,
    "name": "矢巾町",
    "capital": false,
    "name_kana": "ヤハバチョウ"
  },
  {
    "code": "033669",
    "prefecture_code": 3,
    "name": "西和賀町",
    "capital": false,
    "name_kana": "ニシワガマチ"
  },
  {
    "code": "033812",
    "prefecture_code": 3,
    "name": "金ケ崎町",
    "capital": false,
    "name_kana": "カネガサキチョウ"
  },
  {
    "code": "034029",
    "prefecture_code": 3,
    "name": "平泉町",
    "capital": false,
    "name_kana": "ヒライズミチョウ"
  },
  {
    "code": "034410",
    "prefecture_code": 3,
    "name": "住田町",
    "capital": false,
    "name_kana": "スミタチョウ"
  },
  {
    "code": "034614",
    "prefecture_code": 3,
    "name": "大槌町",
    "capital": false,
    "name_kana": "オオツチチョウ"
  },
  {
    "code": "034827",
    "prefecture_code": 3,
    "name": "山田町",
    "capital": false,
    "name_kana": "ヤマダマチ"
  },
  {
    "code": "034835",
    "prefecture_code": 3,
    "name": "岩泉町",
    "capital": false,
    "name_kana": "イワイズミチョウ"
  },
  {
    "code": "034843",
    "prefecture_code": 3,
    "name": "田野畑村",
    "capital": false,
    "name_kana": "タノハタムラ"
  },
  {
    "code": "034851",
    "prefecture_code": 3,
    "name": "普代村",
    "capital": false,
    "name_kana": "フダイムラ"
  },
  {
    "code": "035017",
    "prefecture_code": 3,
    "name": "軽米町",
    "capital": false,
    "name_kana": "カルマイマチ"
  },
  {
    "code": "035033",
    "prefecture_code": 3,
    "name": "野田村",
    "capital": false,
    "name_kana": "ノダムラ"
  },
  {
    "code": "035068",
    "prefecture_code": 3,
    "name": "九戸村",
    "capital": false,
    "name_kana": "クノヘムラ"
  },
  {
    "code": "035076",
    "prefecture_code": 3,
    "name": "洋野町",
    "capital": false,
    "name_kana": "ヒロノチョウ"
  },
  {
    "code": "035246",
    "prefecture_code": 3,
    "name": "一戸町",
    "capital": false,
    "name_kana": "イチノヘマチ"
  }
]
