[
  {
    "code": "082015",
    "prefecture_code": 8,
    "name": "水戸市",
    "capital": true,
    "name_kana": "ミトシ"
  },
  {
    "code": "082023",
    "prefecture_code": 8,
    "name": "日立市",
    "capital": false,
    "name_kana": "ヒタチシ"
  },
  {
    "code": "082031",
    "prefecture_code": 8,
    "name": "土浦市",
    "capital": false,
    "name_kana": "ツチウラシ"
  },
  {
    "code": "082040",
    "prefecture_code": 8,
    "name": "古河市",
    "capital": false,
    "name_kana": "コガシ"
  },
  {
    "code": "082058",
    "prefecture_code": 8,
    "name": "石岡市",
    "capital": false,
    "name_kana": "イシオカシ"
  },
  {
    "code": "082074",
    "prefecture_code": 8,
    "name": "結城市",
    "capital": false,
    "name_kana": "ユウキシ"
  },
  {
    "code": "082082",
    "prefecture_code": 8,
    "name": "龍ケ崎市",
    "capital": false,
    "name_kana": "リュウガサキシ"
  },
  {
    "code": "082104",
    "prefecture_code": 8,
    "name": "下妻市",
    "capital": false,
    "name_kana": "シモツマシ"
  },
  {
    "code": "082112",
    "prefecture_code": 8,
    "name": "常総市",
    "capital": false,
    "name_kana": "ジョウソウシ"
  },
  {
    "code": "082121",
    "prefecture_code": 8,
    "name": "常陸太田市",
    "capital": false,
    "name_kana": "ヒタチオオタシ"
  },
  {
    "code": "082147",
    "prefecture_code": 8,
    "name": "高萩市",
    "capital": false,
    "name_kana": "タカハギシ"
  },
  {
    "code": "082155",
    "prefecture_code": 8,
    "name": "北茨城市",
    "capital": false,
    "name_kana": "キタイバラキシ"
  },
  {
    "code": "082163",
    "prefecture_code": 8,
    "name": "笠間市",
    "capital": false,
    "name_kana": "カサマシ"
  },
  {
    "code": "082171",
    "prefecture_code": 8,
    "name": "取手市",
    "capital": false,
    "name_kana": "トリデシ"
  },
  {
    "code": "082198",
    "prefecture_code": 8,
    "name": "牛久市",
    "capital": false,
    "name_kana": "ウシクシ"
  },
  {
    "code": "082201",
    "prefecture_code": 8,
    "name": "つくば市",
    "capital": false,
    "name_kana": "ツクバシ"
  },
  {
    "code": "082210",
    "prefecture_code": 8,
    "name": "ひたちなか市",
    "capital": false,
    "name_kana": "ヒタチナカシ"
  },
  {
    "code": "082228",
    "prefecture_code": 8,
    "name": "鹿嶋市",
    "capital": false,
    "name_kana": "カシマシ"
  },
  {
    "code": "082236",
    "prefecture_code": 8,
    "name": "潮来市",
    "capital": false,
    "name_kana": "イタコシ"
  },
  {
    "code": "082244",
    "prefecture_code": 8,
    "name": "守谷市",
    "capital": false,
    "name_kana": "モリヤシ"
  },
  {
    "code": "082252",
    "prefecture_code": 8,
    "name": "常陸大宮市",
    "capital": false,
    "name_kana": "ヒタチオオミヤシ"
  },
  {
    "code": "082261",
    "prefecture_code": 8,
    "name": "那珂市",
    "capital": false,
    "name_kana": "ナカシ"
  },
  {
    "code": "082279",
    "prefecture_code": 8,
    "name": "筑西市",
    "capital": false,
    "name_kana": "チクセイシ"
  },
  {
    "code": "082287",
    "prefecture_code": 8,
    "name": "坂東市",
    "capital": false,
    "name_kana": "バンドウシ"
  },
  {
    "code": "082295",
    "prefecture_code": 8,
    "name": "稲敷市",
    "capital": false,
    "name_kana": "イナシキシ"
  },
  {
    "code": "082309",
    "prefecture_code": 8,
    "name": "かすみがうら市",
    "capital": false,
    "name_kana": "カスミガウラシ"
  },
  {
    "code": "082317",
    "prefecture_code": 8,
    "name": "桜川市",
    "capital": false,
    "name_kana": "サクラガワシ"
  },
  {
    "code": "082325",
    "prefecture_code": 8,
    "name": "神栖市",
    "capital": false,
    "name_kana": "カミスシ"
  },
  {
    "code": "082333",
    "prefecture_code": 8,
    "name": "行方市",
    "capital": false,
    "name_kana": "ナメガタシ"
  },
  {
    "code": "082341",
    "prefecture_code": 8,
    "name": "鉾田市",
    "capital": false,
    "name_kana": "ホコタシ"
  },
  {
    "code": "082350",
    "prefecture_code": 8,
    "name": "つくばみらい市",
    "capital": false,
    "name_kana": "ツクバミライシ"
  },
  {
    "code": "082368",
    "prefecture_code": 8,
    "name": "小美玉市",
    "capital": false,
    "name_kana": "オミタマシ"
  },
  {
    "code": "083020",
    "prefecture_code": 8,
    "name": "茨城町",
    "capital": false,
    "name_kana": "イバラキマチ"
  },
  {
    "code": "083097",
    "prefecture_code": 8,
    "name": "大洗町",
    "capital": false,
    "name_kana": "オオアライマチ"
  },
  {
    "code": "083101",
    "prefecture_code": 8,
    "name": "城里町",
    "capital": false,
    "name_kana": "シロサトマチ"
  },
  {
    "code": "083411",
    "prefecture_code": 8,
    "name": "東海村",
    "capital": false,
    "name_kana": "トウカイムラ"
  },
  {
    "code": "083640",
    "prefecture_code": 8,
    "name": "大子町",
    "capital": false,
    "name_kana": "ダイゴマチ"
  },
  {
    "code": "084425",
    "prefecture_code": 8,
    "name": "美浦村",
    "capital": false,
    "name_kana": "ミホムラ"
  },
  {
    "code": "084433",
    "prefecture_code": 8,
    "name": "阿見町",
    "capital": false,
    "name_kana": "アミマチ"
  },
  {
    "code": "084476",
    "prefecture_code": 8,
    "name": "河内町",
    "capital": false,
    "name_kana": "カワチマチ"
  },
  {
    "code": "085219",
    "prefecture_code": 8,
    "name": "八千代町",
    "capital": false,
    "name_kana": "ヤチヨマチ"
  },
  {
    "code": "085421",
    "prefecture_code": 8,
    "name": "五霞町",
    "capital": false,
    "name_kana": "ゴカマチ"
  },
  {
    "code": "085464",
    "prefecture_code": 8,
    "name": "境町",
    "capital": false,
    "name_kana": "サカイマチ"
  },
  {
    "code": "085642",
    "prefecture_code": 8,
    "name": "利根町",
    "capital": false,
    "name_kana": "トネマチ"
  }
]
