[
  {
    "code": "102016",
    "prefecture_code": 10,
    "name": "前橋市",
    "capital": true,
    "name_kana": "マエバシシ"
  },
  {
    "code": "102024",
    "prefecture_code": 10,
    "name": "高崎市",
    "capital": false,
    "name_kana": "タカサキシ"
  },
  {
    "code": "102032",
    "prefecture_code": 10,
    "name": "桐生市",
    "capital": false,
    "name_kana": "キリュウシ"
  },
  {
    "code": "102041",
    "prefecture_code": 10,
    "name": "伊勢崎市",
    "capital": false,
    "name_kana": "イセサキシ"
  },
  {
    "code": "102059",
    "prefecture_code": 10,
    "name": "太田市",
    "capital": false,
    "name_kana": "オオタシ"
  },
  {
    "code": "102067",
    "prefecture_code": 10,
    "name": "沼田市",
    "capital": false,
    "name_kana": "ヌマタシ"
  },
  {
    "code": "102075",
    "prefecture_code": 10,
    "name": "館林市",
    "capital": false,
    "name_kana": "タテバヤシシ"
  },
  {
    "code": "102083",
    "prefecture_code": 10,
    "name": "渋川市",
    "capital": false,
    "name_kana": "シブカワシ"
  },
  {
    "code": "102091",
    "prefecture_code": 10,
    "name": "藤岡市",
    "capital": false,
    "name_kana": "フジオカシ"
  },
  {
    "code": "102105",
    "prefecture_code": 10,
    "name": "富岡市",
    "capital": false,
    "name_kana": "トミオカシ"
  },
  {
    "code": "102113",
    "prefecture_code": 10,
    "name": "安中市",
    "capital": false,
    "name_kana": "アンナカシ"
  },
  {
    "code": "102121",
    "prefecture_code": 10,
    "name": "みどり市",
    "capital": false,
    "name_kana": "ミドリシ"
  },
  {
    "code": "103446",
    "prefecture_code": 10,
    "name": "榛東村",
    "capital": false,
    "name_kana": "シントウムラ"
  },
  {
    "code": "103454",
    "prefecture_code": 10,
    "name": "吉岡町",
    "capital": false,
    "name_kana": "ヨシオカマチ"
  },
  {
    "code": "103667",
    "prefecture_code": 10,
    "name": "上野村",
    "capital": false,
    "name_kana": "ウエノムラ"
  },
  {
    "code": "103675",
    "prefecture_code": 10,
    "name": "神流町",
    "capital": false,
    "name_kana": "カンナマチ"
  },
  {
    "code": "103829",
    "prefecture_code": 10,
    "name": "下仁田町",
    "capital": false,
    "name_kana": "シモニタマチ"
  },
  {
    "code": "103837",
    "prefecture_code": 10,
    "name": "南牧村",
    "capital": false,
    "name_kana": "ナンモクムラ"
  },
  {
    "code": "103845",
    "prefecture_code": 10,
    "name": "甘楽町",
    "capital": false,
    "name_kana": "カンラマチ"
  },
  {
    "code": "104213",
    "prefecture_code": 10,
    "name": "中之条町",
    "capital": false,
    "name_kana": "ナカノジヨウマチ"
  },
  {
    "code": "104248",
    "prefecture_code": 10,
    "name": "長野原町",
    "capital": false,
    "name_kana": "ナガノハラマチ"
  },
  {
    "code": "104256",
    "prefecture_code": 10,
    "name": "嬬恋村",
    "capital": false,
    "name_kana": "ツマゴイムラ"
  },
  {
    "code": "104264",
    "prefecture_code": 10,
    "name": "草津町",
    "capital": false,
    "name_kana": "クサツマチ"
  },
  {
    "code": "104281",
    "prefecture_code": 10,
    "name": "高山村",
    "capital": false,
    "name_kana": "タカヤマムラ"
  },
  {
    "code": "104299",
    "prefecture_code": 10,
    "name": "東吾妻町",
    "capital": false,
    "name_kana": "ヒガシアガツママチ"
  },
  {
    "code": "104434",
    "prefecture_code": 10,
    "name": "片品村",
    "capital": false,
    "name_kana": "カタシナムラ"
  },
  {
    "code": "104442",
    "prefecture_code": 10,
    "name": "川場村",
    "capital": false,
    "name_kana": "カワバムラ"
  },
  {
    "code": "104485",
    "prefecture_code": 10,
    "name": "昭和村",
    "capital": false,
    "name_kana": "ショウワムラ"
  },
  {
    "code": "104493",
    "prefecture_code": 10,
    "name": "みなかみ町",
    "capital": false,
    "name_kana": "ミナカミマチ"
  },
  {
    "code": "104647",
    "prefecture_code": 10,
    "name": "玉村町",
    "capital": false,
    "name_kana": "タマムラマチ"
  },
  {
    "code": "105210",
    "prefecture_code": 10,
    "name": "板倉町",
    "capital": false,
    "name_kana": "イタクラマチ"
  },
  {
    "code": "105228",
    "prefecture_code": 10,
    "name": "明和町",
    "capital": false,
    "name_kana": "メイワマチ"
  },
  {
    "code": "105236",
    "prefecture_code": 10,
    "name": "千代田町",
    "capital": false,
    "name_kana": "チヨダマチ"
  },
  {
    "code": "105244",
    "prefecture_code": 10,
    "name": "大泉町",
    "capital": false,
    "name_kana": "オオイズミマチ"
  },
  {
    "code": "105252",
    "prefecture_code": 10,
    "name": "邑楽町",
    "capital": false,
    "name_kana": "オウラマチ"
  }
]
