[
  {
    "code": "131016",
    "prefecture_code": 13,
    "name": "千代田区",
    "capital": false,
    "name_kana": "チヨダク"
  },
  {
    "code": "131024",
    "prefecture_code": 13,
    "name": "中央区",
    "capital": false,
    "name_kana": "チュウオウク"
  },
  {
    "code": "131032",
    "prefecture_code": 13,
    "name": "港区",
    "capital": false,
    "name_kana": "ミナトク"
  },
  {
    "code": "131041",
    "prefecture_code": 13,
    "name": "新宿区",
    "capital": true,
    "name_kana": "シンジュクク"
  },
  {
    "code": "131059",
    "prefecture_code": 13,
    "name": "文京区",
    "capital": false,
    "name_kana": "ブンキョウク"
  },
  {
    "code": "131067",
    "prefecture_code": 13,
    "name": "台東区",
    "capital": false,
    "name_kana": "タイトウク"
  },
  {
    "code": "131075",
    "prefecture_code": 13,
    "name": "墨田区",
    "capital": false,
    "name_kana": "スミダク"
  },
  {
    "code": "131083",
    "prefecture_code": 13,
    "name": "江東区",
    "capital": false,
    "name_kana": "コウトウク"
  },
  {
    "code": "131091",
    "prefecture_code": 13,
    "name": "品川区",
    "capital": false,
    "name_kana": "シナガワク"
  },
  {
    "code": "131105",
    "prefecture_code": 13,
    "name": "目黒区",
    "capital": false,
    "name_kana": "メグロク"
  },
  {
    "code": "131113",
    "prefecture_code": 13,
    "name": "大田区",
    "capital": false,
    "name_kana": "オオタク"
  },
  {
    "code": "131121",
    "prefecture_code": 13,
    "name": "世田谷区",
    "capital": false,
    "name_kana": "セタガヤク"
  },
  {
    "code": "131130",
    "prefecture_code": 13,
    "name": "渋谷区",
    "capital": false,
    "name_kana": "シブヤク"
  },
  {
    "code": "131148",
    "prefecture_code": 13,
    "name": "中野区",
    "capital": false,
    "name_kana": "ナカノク"
  },
  {
    "code": "131156",
    "prefecture_code": 13,
    "name": "杉並区",
    "capital": false,
    "name_kana": "スギナミク"
  },
  {
    "code": "131164",
    "prefecture_code": 13,
    "name": "豊島区",
    "capital": false,
    "name_kana": "トシマク"
  },
  {
    "code": "131172",
    "prefecture_code": 13,
    "name": "北区",
    "capital": false,
    "name_kana": "キタク"
  },
  {
    "code": "131181",
    "prefecture_code": 13,
    "name": "荒川区",
    "capital": false,
    "name_kana": "アラカワク"
  },
  {
    "code": "131199",
    "prefecture_code": 13,
    "name": "板橋区",
    "capital": false,
    "name_kana": "イタバシク"
  },
  {
    "code": "131202",
    "prefecture_code": 13,
    "name": "練馬区",
    "capital": false,
    "name_kana": "ネリマク"
  },
  {
    "code": "131211",
    "prefecture_code": 13,
    "name": "足立区",
    "capital": false,
    "name_kana": "アダチク"
  },
  {
    "code": "131229",
    "prefecture_code": 13,
    "name": "葛飾区",
    "capital": false,
    "name_kana": "カツシカク"
  },
  {
    "code": "131237",
    "prefecture_code": 13,
    "name": "江戸川区",
    "capital": false,
    "name_kana": "エドガワク"
  },
  {
    "code": "132012",
    "prefecture_code": 13,
    "name": "八王子市",
    "capital": false,
    "name_kana": "ハチオウジシ"
  },
  {
    "code": "132021",
    "prefecture_code": 13,
    "name": "立川市",
    "capital": false,
    "name_kana": "タチカワシ"
  },
  {
    "code": "132039",
    "prefecture_code": 13,
    "name": "武蔵野市",
    "capital": false,
    "name_kana": "ムサシノシ"
  },
  {
    "code": "132047",
    "prefecture_code": 13,
    "name": "三鷹市",
    "capital": false,
    "name_kana": "ミタカシ"
  },
  {
    "code": "132055",
    "prefecture_code": 13,
    "name": "青梅市",
    "capital": false,
    "name_kana": "オウメシ"
  },
  {
    "code": "132063",
    "prefecture_code": 13,
    "name": "府中市",
    "capital": false,
    "name_kana": "フチュウシ"
  },
  {
    "code": "132071",
    "prefecture_code": 13,
    "name": "昭島市",
    "capital": false,
    "name_kana": "アキシマシ"
  },
  {
    "code": "132080",
    "prefecture_code": 13,
    "name": "調布市",
    "capital": false,
    "name_kana": "チョウフシ"
  },
  {
    "code": "132098",
    "prefecture_code": 13,
    "name": "町田市",
    "capital": false,
    "name_kana": "マチダシ"
  },
  {
    "code": "132101",
    "prefecture_code": 13,
    "name": "小金井市",
    "capital": false,
    "name_kana": "コガネイシ"
  },
  {
    "code": "132110",
    "prefecture_code": 13,
    "name": "小平市",
    "capital": false,
    "name_kana": "コダイラシ"
  },
  {
    "code": "132128",
    "prefecture_code": 13,
    "name": "日野市",
    "capital": false,
    "name_kana": "ヒノシ"
  },
  {
    "code": "132136",
    "prefecture_code": 13,
    "name": "東村山市",
    "capital": false,
    "name_kana": "ヒガシムラヤマシ"
  },
  {
    "code": "132144",
    "prefecture_code": 13,
    "name": "国分寺市",
    "capital": false,
    "name_kana": "コクブンジシ"
  },
  {
    "code": "132152",
    "prefecture_code": 13,
    "name": "国立市",
    "capital": false,
    "name_kana": "クニタチシ"
  },
  {
    "code": "132187",
    "prefecture_code": 13,
    "name": "福生市",
    "capital": false,
    "name_kana": "フッサシ"
  },
  {
    "code": "132195",
    "prefecture_code": 13,
    "name": "狛江市",
    "capital": false,
    "name_kana": "コマエシ"
  },
  {
    "code": "132209",
    "prefecture_code": 13,
    "name": "東大和市",
    "capital": false,
    "name_kana": "ヒガシヤマトシ"
  },
  {
    "code": "132217",
    "prefecture_code": 13,
    "name": "清瀬市",
    "capital": false,
    "name_kana": "キヨセシ"
  },
  {
    "code": "132225",
    "prefecture_code": 13,
    "name": "東久留米市",
    "capital": false,
    "name_kana": "ヒガシクルメシ"
  },
  {
    "code": "132233",
    "prefecture_code": 13,
    "name": "武蔵村山市",
    "capital": false,
    "name_kana": "ムサシムラヤマシ"
  },
  {
    "code": "132241",
    "prefecture_code": 13,
    "name": "多摩市",
    "capital": false,
    "name_kana": "タマシ"
  },
  {
    "code": "132250",
    "prefecture_code": 13,
    "name": "稲城市",
    "capital": false,
    "name_kana": "イナギシ"
  },
  {
    "code": "132276",
    "prefecture_code": 13,
    "name": "羽村市",
    "capital": false,
    "name_kana": "ハムラシ"
  },
  {
    "code": "132284",
    "prefecture_code": 13,
    "name": "あきる野市",
    "capital": false,
    "name_kana": "アキルノシ"
  },
  {
    "code": "132292",
    "prefecture_code": 13,
    "name": "西東京市",
    "capital": false,
    "name_kana": "ニシトウキョウシ"
  },
  {
    "code": "133035",
    "prefecture_code": 13,
    "name": "瑞穂町",
    "capital": false,
    "name_kana": "ミズホマチ"
  },
  {
    "code": "133051",
    "prefecture_code": 13,
    "name": "日の出町",
    "capital": false,
    "name_kana": "ヒノデマチ"
  },
  {
    "code": "133078",
    "prefecture_code": 13,
    "name": "檜原村",
    "capital": false,
    "name_kana": "ヒノハラムラ"
  },
  {
    "code": "133086",
    "prefecture_code": 13,
    "name": "奥多摩町",
    "capital": false,
    "name_kana": "オクタママチ"
  },
  {
    "code": "133612",
    "prefecture_code": 13,
    "name": "大島町",
    "capital": false,
    "name_kana": "オオシママチ"
  },
  {
    "code": "133621",
    "prefecture_code": 13,
    "name": "利島村",
    "capital": false,
    "name_kana": "トシマムラ"
  },
  {
    "code": "133639",
    "prefecture_code": 13,
    "name": "新島村",
    "capital": false,
    "name_kana": "ニイジマムラ"
  },
  {
    "code": "133647",
    "prefecture_code": 13,
    "name": "神津島村",
    "capital": false,
    "name_kana": "コウヅシマムラ"
  },
  {
    "code": "133817",
    "prefecture_code": 13,
    "name": "三宅村",
    "capital": false,
    "name_kana": "ミヤケムラ"
  },
  {
    "code": "133825",
    "prefecture_code": 13,
    "name": "御蔵島村",
    "capital": false,
    "name_kana": "ミクラジマムラ"
  },
  {
    "code": "134015",
    "prefecture_code": 13,
    "name": "八丈町",
    "capital": false,
    "name_kana": "ハチジョウマチ"
  },
  {
    "code": "134023",
    "prefecture_code": 13,
    "name": "青ヶ島村",
    "capital": false,
    "name_kana": "アオガシマムラ"
  },
  {
    "code": "134210",
    "prefecture_code": 13,
    "name": "小笠原村",
    "capital": false,
    "name_kana": "オガサワラムラ"
  }
]
