[
  {
    "code": "141003",
    "prefecture_code": 14,
    "name": "横浜市",
    "capital": true,
    "name_kana": "ヨコハマシ"
  },
  {
    "code": "141011",
    "prefecture_code": 14,
    "name": "横浜市鶴見区",
    "capital": false,
    "name_kana": "ヨコハマシツルミク"
  },
  {
    "code": "141020",
    "prefecture_code": 14,
    "name": "横浜市神奈川区",
    "capital": false,
    "name_kana": "ヨコハマシカナガワク"
  },
  {
    "code": "141038",
    "prefecture_code": 14,
    "name": "横浜市西区",
    "capital": false,
    "name_kana": "ヨコハマシニシク"
  },
  {
    "code": "141046",
    "prefecture_code": 14,
    "name": "横浜市中区",
    "capital": false,
    "name_kana": "ヨコハマシナカク"
  },
  {
    "code": "141054",
    "prefecture_code": 14,
    "name": "横浜市南区",
    "capital": false,
    "name_kana": "ヨコハマシミナミク"
  },
  {
    "code": "141062",
    "prefecture_code": 14,
    "name": "横浜市保土ケ谷区",
    "capital": false,
    "name_kana": "ヨコハマシホドガヤク"
  },
  {
    "code": "141071",
    "prefecture_code": 14,
    "name": "横浜市磯子区",
    "capital": false,
    "name_kana": "ヨコハマシイソゴク"
  },
  {
    "code": "141089",
    "prefecture_code": 14,
    "name": "横浜市金沢区",
    "capital": false,
    "name_kana": "ヨコハマシカナザワク"
  },
  {
    "code": "141097",
    "prefecture_code": 14,
    "name": "横浜市港北区",
    "capital": false,
    "name_kana": "ヨコハマシコウホクク"
  },
  {
    "code": "141101",
    "prefecture_code": 14,
    "name": "横浜市戸塚区",
    "capital": false,
    "name_kana": "ヨコハマシトツカク"
  },
  {
    "code": "141119",
    "prefecture_code": 14,
    "name": "横浜市港南区",
    "capital": false,
    "name_kana": "ヨコハマシコウナンク"
  },
  {
    "code": "141127",
    "prefecture_code": 14,
    "name": "横浜市旭区",
    "capital": false,
    "name_kana": "ヨコハマシアサヒク"
  },
  {
    "code": "141135",
    "prefecture_code": 14,
    "name": "横浜市緑区",
    "capital": false,
    "name_kana": "ヨコハマシミドリク"
  },
  {
    "code": "141143",
    "prefecture_code": 14,
    "name": "横浜市瀬谷区",
    "capital": false,
    "name_kana": "ヨコハマシセヤク"
  },
  {
    "code": "141151",
    "prefecture_code": 14,
    "name": "横浜市栄区",
    "capital": false,
    "name_kana": "ヨコハマシサカエク"
  },
  {
    "code": "141160",
    "prefecture_code": 14,
    "name": "横浜市泉区",
    "capital": false,
    "name_kana": "ヨコハマシイズミク"
  },
  {
    "code": "141178",
    "prefecture_code": 14,
    "name": "横浜市青葉区",
    "capital": false,
    "name_kana": "ヨコハマシアオバク"
  },
  {
    "code": "141186",
    "prefecture_code": 14,
    "name": "横浜市都筑区",
    "capital": false,
    "name_kana": "ヨコハマシツヅキク"
  },
  {
    "code": "141305",
    "prefecture_code": 14,
    "name": "川崎市",
    "capital": false,
    "name_kana": "カワサキシ"
  },
  {
    "code": "141313",
    "prefecture_code": 14,
    "name": "川崎市川崎区",
    "capital": false,
    "name_kana": "カワサキシカワサキク"
  },
  {
    "code": "141321",
    "prefecture_code": 14,
    "name": "川崎市幸区",
    "capital": false,
    "name_kana": "カワサキシサイワイク"
  },
  {
    "code": "141330",
    "prefecture_code": 14,
    "name": "川崎市中原区",
    "capital": false,
    "name_kana": "カワサキシナカハラク"
  },
  {
    "code": "141348",
    "prefecture_code": 14,
    "name": "川崎市高津区",
    "capital": false,
    "name_kana": "カワサキシタカツク"
  },
  {
    "code": "141356",
    "prefecture_code": 14,
    "name": "川崎市多摩区",
    "capital": false,
    "name_kana": "カワサキシタマク"
  },
  {
    "code": "141364",
    "prefecture_code": 14,
    "name": "川崎市宮前区",
    "capital": false,
    "name_kana": "カワサキシミヤマエク"
  },
  {
    "code": "141372",
    "prefecture_code": 14,
    "name": "川崎市麻生区",
    "capital": false,
    "name_kana": "カワサキシアサオク"
  },
  {
    "code": "141500",
    "prefecture_code": 14,
    "name": "相模原市",
    "capital": false,
    "name_kana": "サガミハラシ"
  },
  {
    "code": "141518",
    "prefecture_code": 14,
    "name": "相模原市緑区",
    "capital": false,
    "name_kana": "サガミハラシミドリク"
  },
  {
    "code": "141526",
    "prefecture_code": 14,
    "name": "相模原市中央区",
    "capital": false,
    "name_kana": "サガミハラシチュウオウク"
  },
  {
    "code": "141534",
    "prefecture_code": 14,
    "name": "相模原市南区",
    "capital": false,
    "name_kana": "サガミハラシミナミク"
  },
  {
    "code": "142018",
    "prefecture_code": 14,
    "name": "横須賀市",
    "capital": false,
    "name_kana": "ヨコスカシ"
  },
  {
    "code": "142034",
    "prefecture_code": 14,
    "name": "平塚市",
    "capital": false,
    "name_kana": "ヒラツカシ"
  },
  {
    "code": "142042",
    "prefecture_code": 14,
    "name": "鎌倉市",
    "capital": false,
    "name_kana": "カマクラシ"
  },
  {
    "code": "142051",
    "prefecture_code": 14,
    "name": "藤沢市",
    "capital": false,
    "name_kana": "フジサワシ"
  },
  {
    "code": "142069",
    "prefecture_code": 14,
    "name": "小田原市",
    "capital": false,
    "name_kana": "オダワラシ"
  },
  {
    "code": "142077",
    "prefecture_code": 14,
    "name": "茅ヶ崎市",
    "capital": false,
    "name_kana": "チガサキシ"
  },
  {
    "code": "142085",
    "prefecture_code": 14,
    "name": "逗子市",
    "capital": false,
    "name_kana": "ズシシ"
  },
  {
    "code": "142107",
    "prefecture_code": 14,
    "name": "三浦市",
    "capital": false,
    "name_kana": "ミウラシ"
  },
  {
    "code": "142115",
    "prefecture_code": 14,
    "name": "秦野市",
    "capital": false,
    "name_kana": "ハダノシ"
  },
  {
    "code": "142123",
    "prefecture_code": 14,
    "name": "厚木市",
    "capital": false,
    "name_kana": "アツギシ"
  },
  {
    "code": "142131",
    "prefecture_code": 14,
    "name": "大和市",
    "capital": false,
    "name_kana": "ヤマトシ"
  },
  {
    "code": "142140",
    "prefecture_code": 14,
    "name": "伊勢原市",
    "capital": false,
    "name_kana": "イセハラシ"
  },
  {
    "code": "142158",
    "prefecture_code": 14,
    "name": "海老名市",
    "capital": false,
    "name_kana": "エビナシ"
  },
  {
    "code": "142166",
    "prefecture_code": 14,
    "name": "座間市",
    "capital": false,
    "name_kana": "ザマシ"
  },
  {
    "code": "142174",
    "prefecture_code": 14,
    "name": "南足柄市",
    "capital": false,
    "name_kana": "ミナミアシガラシ"
  },
  {
    "code": "142182",
    "prefecture_code": 14,
    "name": "綾瀬市",
    "capital": false,
    "name_kana": "アヤセシ"
  },
  {
    "code": "143014",
    "prefecture_code": 14,
    "name": "葉山町",
    "capital": false,
    "name_kana": "ハヤママチ"
  },
  {
    "code": "143219",
    "prefecture_code": 14,
    "name": "寒川町",
    "capital": false,
    "name_kana": "サムカワマチ"
  },
  {
    "code": "143413",
    "prefecture_code": 14,
    "name": "大磯町",
    "capital": false,
    "name_kana": "オオイソマチ"
  },
  {
    "code": "143421",
    "prefecture_code": 14,
    "name": "二宮町",
    "capital": false,
    "name_kana": "ニノミヤマチ"
  },
  {
    "code": "143618",
    "prefecture_code": 14,
    "name": "中井町",
    "capital": false,
    "name_kana": "ナカイマチ"
  },
  {
    "code": "143626",
    "prefecture_code": 14,
    "name": "大井町",
    "capital": false,
    "name_kana": "オオイマチ"
  },
  {
    "code": "143634",
    "prefecture_code": 14,
    "name": "松田町",
    "capital": false,
    "name_kana": "マツダマチ"
  },
  {
    "code": "143642",
    "prefecture_code": 14,
    "name": "山北町",
    "capital": false,
    "name_kana": "ヤマキタマチ"
  },
  {
    "code": "143669",
    "prefecture_code": 14,
    "name": "開成町",
    "capital": false,
    "name_kana": "カイセイマチ"
  },
  {
    "code": "143821",
    "prefecture_code": 14,
    "name": "箱根町",
    "capital": false,
    "name_kana": "ハコネマチ"
  },
  {
    "code": "143839",
    "prefecture_code": 14,
    "name": "真鶴町",
    "capital": false,
    "name_kana": "マナツルマチ"
  },
  {
    "code": "143847",
    "prefecture_code": 14,
    "name": "湯河原町",
    "capital": false,
    "name_kana": "ユガワラマチ"
  },
  {
    "code": "144011",
    "prefecture_code": 14,
    "name": "愛川町",
    "capital": false,
    "name_kana": "アイカワマチ"
  },
  {
    "code": "144029",
    "prefecture_code": 14,
    "name": "清川村",
    "capital": false,
    "name_kana": "キヨカワムラ"
  }
]
