[
  {
    "code": "151009",
    "prefecture_code": 15,
    "name": "新潟市",
    "capital": true,
    "name_kana": "ニイガタシ"
  },
  {
    "code": "151017",
    "prefecture_code": 15,
    "name": "新潟市北区",
    "capital": false,
    "name_kana": "ニイガタシキタク"
  },
  {
    "code": "151025",
    "prefecture_code": 15,
    "name": "新潟市東区",
    "capital": false,
    "name_kana": "ニイガタシヒガシク"
  },
  {
    "code": "151033",
    "prefecture_code": 15,
    "name": "新潟市中央区",
    "capital": false,
    "name_kana": "ニイガタシチュウオウク"
  },
  {
    "code": "151041",
    "prefecture_code": 15,
    "name": "新潟市江南区",
    "capital": false,
    "name_kana": "ニイガタシコウナンク"
  },
  {
    "code": "151050",
    "prefecture_code": 15,
    "name": "新潟市秋葉区",
    "capital": false,
    "name_kana": "ニイガタシアキハク"
  },
  {
    "code": "151068",
    "prefecture_code": 15,
    "name": "新潟市南区",
    "capital": false,
    "name_kana": "ニイガタシミナミク"
  },
  {
    "code": "151076",
    "prefecture_code": 15,
    "name": "新潟市西区",
    "capital": false,
    "name_kana": "ニイガタシニシク"
  },
  {
    "code": "151084",
    "prefecture_code": 15,
    "name": "新潟市西蒲区",
    "capital": false,
    "name_kana": "ニイガタシニシカンク"
  },
  {
    "code": "152021",
    "prefecture_code": 15,
    "name": "長岡市",
    "capital": false,
    "name_kana": "ナガオカシ"
  },
  {
    "code": "152048",
    "prefecture_code": 15,
    "name": "三条市",
    "capital": false,
    "name_kana": "サンジョウシ"
  },
  {
    "code": "152056",
    "prefecture_code": 15,
    "name": "柏崎市",
    "capital": false,
    "name_kana": "カシワザキシ"
  },
  {
    "code": "152064",
    "prefecture_code": 15,
    "name": "新発田市",
    "capital": false,
    "name_kana": "シバタシ"
  },
  {
    "code": "152081",
    "prefecture_code": 15,
    "name": "小千谷市",
    "capital": false,
    "name_kana": "オヂヤシ"
  },
  {
    "code": "152099",
    "prefecture_code": 15,
    "name": "加茂市",
    "capital": false,
    "name_kana": "カモシ"
  },
  {
    "code": "152102",
    "prefecture_code": 15,
    "name": "十日町市",
    "capital": false,
    "name_kana": "トオカマチシ"
  },
  {
    "code": "152111",
    "prefecture_code": 15,
    "name": "見附市",
    "capital": false,
    "name_kana": "ミツケシ"
  },
  {
    "code": "152129",
    "prefecture_code": 15,
    "name": "村上市",
    "capital": false,
    "name_kana": "ムラカミシ"
  },
  {
    "code": "152137",
    "prefecture_code": 15,
    "name": "燕市",
    "capital": false,
    "name_kana": "ツバメシ"
  },
  {
    "code": "152161",
    "prefecture_code": 15,
    "name": "糸魚川市",
    "capital": false,
    "name_kana": "イトイガワシ"
  },
  {
    "code": "152170",
    "prefecture_code": 15,
    "name": "妙高市",
    "capital": false,
    "name_kana": "ミョウコウシ"
  },
  {
    "code": "152188",
    "prefecture_code": 15,
    "name": "五泉市",
    "capital": false,
    "name_kana": "ゴセンシ"
  },
  {
    "code": "152226",
    "prefecture_code": 15,
    "name": "上越市",
    "capital": false,
    "name_kana": "ジョウエツシ"
  },
  {
    "code": "152234",
    "prefecture_code": 15,
    "name": "阿賀野市",
    "capital": false,
    "name_kana": "アガノシ"
  },
  {
    "code": "152242",
    "prefecture_code": 15,
    "name": "佐渡市",
    "capital": false,
    "name_kana": "サドシ"
  },
  {
    "code": "152251",
    "prefecture_code": 15,
    "name": "魚沼市",
    "capital": false,
    "name_kana": "ウオヌマシ"
  },
  {
    "code": "152269",
    "prefecture_code": 15,
    "name": "南魚沼市",
    "capital": false,
    "name_kana": "ミナミウオヌマシ"
  },
  {
    "code": "152277",
    "prefecture_code": 15,
    "name": "胎内市",
    "capital": false,
    "name_kana": "タイナイシ"
  },
  {
    "code": "153079",
    "prefecture_code": 15,
    "name": "聖籠町",
    "capital": false,
    "name_kana": "セイロウマチ"
  },
  {
    "code": "153427",
    "prefecture_code": 15,
    "name": "弥彦村",
    "capital": false,
    "name_kana": "ヤヒコムラ"
  },
  {
    "code": "153613",
    "prefecture_code": 15,
    "name": "田上町",
    "capital": false,
    "name_kana": "タガミマチ"
  },
  {
    "code": "153851",
    "prefecture_code": 15,
    "name": "阿賀町",
    "capital": false,
    "name_kana": "アガマチ"
  },
  {
    "code": "154059",
    "prefecture_code": 15,
    "name": "出雲崎町",
    "capital": false,
    "name_kana": "イズモザキマチ"
  },
  {
    "code": "154610",
    "prefecture_code": 15,
    "name": "湯沢町",
    "capital": false,
    "name_kana": "ユザワマチ"
  },
  {
    "code": "154822",
    "prefecture_code": 15,
    "name": "津南町",
    "capital": false,
    "name_kana": "ツナンマチ"
  },
  {
    "code": "155047",
    "prefecture_code": 15,
    "name": "刈羽村",
    "capital": false,
    "name_kana": "カリワムラ"
  },
  {
    "code": "155811",
    "prefecture_code": 15,
    "name": "関川村",
    "capital": false,
    "name_kana": "セキカワムラ"
  },
  {
    "code": "155861",
    "prefecture_code": 15,
    "name": "粟島浦村",
    "capital": false,
    "name_kana": "アワシマウラムラ"
  }
]
