[
  {
    "code": "162019",
    "prefecture_code": 16,
    "name": "富山市",
    "capital": true,
    "name_kana": "トヤマシ"
  },
  {
    "code": "162027",
    "prefecture_code": 16,
    "name": "高岡市",
    "capital": false,
    "name_kana": "タカオカシ"
  },
  {
    "code": "162043",
    "prefecture_code": 16,
    "name": "魚津市",
    "capital": false,
    "name_kana": "ウオヅシ"
  },
  {
    "code": "162051",
    "prefecture_code": 16,
    "name": "氷見市",
    "capital": false,
    "name_kana": "ヒミシ"
  },
  {
    "code": "162060",
    "prefecture_code": 16,
    "name": "滑川市",
    "capital": false,
    "name_kana": "ナメリカワシ"
  },
  {
    "code": "162078",
    "prefecture_code": 16,
    "name": "黒部市",
    "capital": false,
    "name_kana": "クロベシ"
  },
  {
    "code": "162086",
    "prefecture_code": 16,
    "name": "砺波市",
    "capital": false,
    "name_kana": "トナミシ"
  },
  {
    "code": "162094",
    "prefecture_code": 16,
    "name": "小矢部市",
    "capital": false,
    "name_kana": "オヤベシ"
  },
  {
    "code": "162108",
    "prefecture_code": 16,
    "name": "南砺市",
    "capital": false,
    "name_kana": "ナントシ"
  },
  {
    "code": "162116",
    "prefecture_code": 16,
    "name": "射水市",
    "capital": false,
    "name_kana": "イミズシ"
  },
  {
    "code": "163210",
    "prefecture_code": 16,
    "name": "舟橋村",
    "capital": false,
    "name_kana": "フナハシムラ"
  },
  {
    "code": "163228",
    "prefecture_code": 16,
    "name": "上市町",
    "capital": false,
    "name_kana": "カミイチマチ"
  },
  {
    "code": "163236",
    "prefecture_code": 16,
    "name": "立山町",
    "capital": false,
    "name_kana": "タテヤママチ"
  },
  {
    "code": "163422",
    "prefecture_code": 16,
    "name": "入善町",
    "capital": false,
    "name_kana": "ニュウゼンマチ"
  },
  {
    "code": "163431",
    "prefecture_code": 16,
    "name": "朝日町",
    "capital": false,
    "name_kana": "アサヒマチ"
  }
]
