[
  {
    "code": "182010",
    "prefecture_code": 18,
    "name": "福井市",
    "capital": true,
    "name_kana": "フクイシ"
  },
  {
    "code": "182028",
    "prefecture_code": 18,
    "name": "敦賀市",
    "capital": false,
    "name_kana": "ツルガシ"
  },
  {
    "code": "182044",
    "prefecture_code": 18,
    "name": "小浜市",
    "capital": false,
    "name_kana": "オバマシ"
  },
  {
    "code": "182052",
    "prefecture_code": 18,
    "name": "大野市",
    "capital": false,
    "name_kana": "オオノシ"
  },
  {
    "code": "182061",
    "prefecture_code": 18,
    "name": "勝山市",
    "capital": false,
    "name_kana": "カツヤマシ"
  },
  {
    "code": "182079",
    "prefecture_code": 18,
    "name": "鯖江市",
    "capital": false,
    "name_kana": "サバエシ"
  },
  {
    "code": "182087",
    "prefecture_code": 18,
    "name": "あわら市",
    "capital": false,
    "name_kana": "アワラシ"
  },
  {
    "code": "182095",
    "prefecture_code": 18,
    "name": "越前市",
    "capital": false,
    "name_kana": "エチゼンシ"
  },
  {
    "code": "182109",
    "prefecture_code": 18,
    "name": "坂井市",
    "capital": false,
    "name_kana": "サカイシ"
  },
  {
    "code": "183229",
    "prefecture_code": 18,
    "name": "永平寺町",
    "capital": false,
    "name_kana": "エイヘイジチョウ"
  },
  {
    "code": "183822",
    "prefecture_code": 18,
    "name": "池田町",
    "capital": false,
    "name_kana": "イケダチョウ"
  },
  {
    "code": "184047",
    "prefecture_code": 18,
    "name": "南越前町",
    "capital": false,
    "name_kana": "ミナミエチゼンチョウ"
  },
  {
    "code": "184233",
    "prefecture_code": 18,
    "name": "越前町",
    "capital": false,
    "name_kana": "エチゼンチョウ"
  },
  {
    "code": "184420",
    "prefecture_code": 18,
    "name": "美浜町",
    "capital": false,
    "name_kana": "ミハマチョウ"
  },
  {
    "code": "184811",
    "prefecture_code": 18,
    "name": "高浜町",
    "capital": false,
    "name_kana": "タカハマチョウ"
  },
  {
    "code": "184837",
    "prefecture_code": 18,
    "name": "おおい町",
    "capital": false,
    "name_kana": "オオイチョウ"
  },
  {
    "code": "185019",
    "prefecture_code": 18,
    "name": "若狭町",
    "capital": false,
    "name_kana": "ワカサチョウ"
  }
]
