[
  {
    "code": "192015",
    "prefecture_code": 19,
    "name": "甲府市",
    "capital": true,
    "name_kana": "コウフシ"
  },
  {
    "code": "192023",
    "prefecture_code": 19,
    "name": "富士吉田市",
    "capital": false,
    "name_kana": "フジヨシダシ"
  },
  {
    "code": "192040",
    "prefecture_code": 19,
    "name": "都留市",
    "capital": false,
    "name_kana": "ツルシ"
  },
  {
    "code": "192058",
    "prefecture_code": 19,
    "name": "山梨市",
    "capital": false,
    "name_kana": "ヤマナシシ"
  },
  {
    "code": "192066",
    "prefecture_code": 19,
    "name": "大月市",
    "capital": false,
    "name_kana": "オオツキシ"
  },
  {
    "code": "192074",
    "prefecture_code": 19,
    "name": "韮崎市",
    "capital": false,
    "name_kana": "ニラサキシ"
  },
  {
    "code": "192082",
    "prefecture_code": 19,
    "name": "南アルプス市",
    "capital": false,
    "name_kana": "ミナミアルプスシ"
  },
  {
    "code": "192091",
    "prefecture_code": 19,
    "name": "北杜市",
    "capital": false,
    "name_kana": "ホクトシ"
  },
  {
    "code": "192104",
    "prefecture_code": 19,
    "name": "甲斐市",
    "capital": false,
    "name_kana": "カイシ"
  },
  {
    "code": "192112",
    "prefecture_code": 19,
    "name": "笛吹市",
    "capital": false,
    "name_kana": "フエフキシ"
  },
  {
    "code": "192121",
    "prefecture_code": 19,
    "name": "上野原市",
    "capital": false,
    "name_kana": "ウエノハラシ"
  },
  {
    "code": "192139",
    "prefecture_code": 19,
    "name": "甲州市",
    "capital": false,
    "name_kana": "コウシュウシ"
  },
  {
    "code": "192147",
    "prefecture_code": 19,
    "name": "中央市",
    "capital": false,
    "name_kana": "チュウオウシ"
  },
  {
    "code": "193461",
    "prefecture_code": 19,
    "name": "市川三郷町",
    "capital": false,
    "name_kana": "イチカワミサトチョウ"
  },
  {
    "code": "193640",
    "prefecture_code": 19,
    "name": "早川町",
    "capital": false,
    "name_kana": "ハヤカワチョウ"
  },
  {
    "code": "193658",
    "prefecture_code": 19,
    "name": "身延町",
    "capital": false,
    "name_kana": "ミノブチョウ"
  },
  {
    "code": "193666",
    "prefecture_code": 19,
    "name": "南部町",
    "capital": false,
    "name_kana": "ナンブチョウ"
  },
  {
    "code": "193682",
    "prefecture_code": 19,
    "name": "富士川町",
    "capital": false,
    "name_kana": "フジカワチョウ"
  },
  {
    "code": "193844",
    "prefecture_code": 19,
    "name": "昭和町",
    "capital": false,
    "name_kana": "ショウワチョウ"
  },
  {
    "code": "194221",
    "prefecture_code": 19,
    "name": "道志村",
    "capital": false,
    "name_kana": "ドウシムラ"
  },
  {
    "code": "194239",
    "prefecture_code": 19,
    "name": "西桂町",
    "capital": false,
    "name_kana": "ニシカツラチョウ"
  },
  {
    "code": "194247",
    "prefecture_code": 19,
    "name": "忍野村",
    "capital": false,
    "name_kana": "オシノムラ"
  },
  {
    "code": "194255",
    "prefecture_code": 19,
    "name": "山中湖村",
    "capital": false,
    "name_kana": "ヤマナカコムラ"
  },
  {
    "code": "194298",
    "prefecture_code": 19,
    "name": "鳴沢村",
    "capital": false,
    "name_kana": "ナルサワムラ"
  },
  {
    "code": "194301",
    "prefecture_code": 19,
    "name": "富士河口湖町",
    "capital": false,
    "name_kana": "フジカワグチコマチ"
  },
  {
    "code": "194425",
    "prefecture_code": 19,
    "name": "小菅村",
    "capital": false,
    "name_kana": "コスゲムラ"
  },
  {
    "code": "194433",
    "prefecture_code": 19,
    "name": "丹波山村",
    "capital": false,
    "name_kana": "タバヤマムラ"
  }
]
