[
  {
    "code": "202011",
    "prefecture_code": 20,
    "name": "長野市",
    "capital": true,
    "name_kana": "ナガノシ"
  },
  {
    "code": "202029",
    "prefecture_code": 20,
    "name": "松本市",
    "capital": false,
    "name_kana": "マツモトシ"
  },
  {
    "code": "202037",
    "prefecture_code": 20,
    "name": "上田市",
    "capital": false,
    "name_kana": "ウエダシ"
  },
  {
    "code": "202045",
    "prefecture_code": 20,
    "name": "岡谷市",
    "capital": false,
    "name_kana": "オカヤシ"
  },
  {
    "code": "202053",
    "prefecture_code": 20,
    "name": "飯田市",
    "capital": false,
    "name_kana": "イイダシ"
  },
  {
    "code": "202061",
    "prefecture_code": 20,
    "name": "諏訪市",
    "capital": false,
    "name_kana": "スワシ"
  },
  {
    "code": "202070",
    "prefecture_code": 20,
    "name": "須坂市",
    "capital": false,
    "name_kana": "スザカシ"
  },
  {
    "code": "202088",
    "prefecture_code": 20,
    "name": "小諸市",
    "capital": false,
    "name_kana": "コモロシ"
  },
  {
    "code": "202096",
    "prefecture_code": 20,
    "name": "伊那市",
    "capital": false,
    "name_kana": "イナシ"
  },
  {
    "code": "202100",
    "prefecture_code": 20,
    "name": "駒ヶ根市",
    "capital": false,
    "name_kana": "コマガネシ"
  },
  {
    "code": "202118",
    "prefecture_code": 20,
    "name": "中野市",
    "capital": false,
    "name_kana": "ナカノシ"
  },
  {
    "code": "202126",
    "prefecture_code": 20,
    "name": "大町市",
    "capital": false,
    "name_kana": "オオマチシ"
  },
  {
    "code": "202134",
    "prefecture_code": 20,
    "name": "飯山市",
    "capital": false,
    "name_kana": "イイヤマシ"
  },
  {
    "code": "202142",
    "prefecture_code": 20,
    "name": "茅野市",
    "capital": false,
    "name_kana": "チノシ"
  },
  {
    "code": "202151",
    "prefecture_code": 20,
    "name": "塩尻市",
    "capital": false,
    "name_kana": "シオジリシ"
  },
  {
    "code": "202177",
    "prefecture_code": 20,
    "name": "佐久市",
    "capital": false,
    "name_kana": "サクシ"
  },
  {
    "code": "202185",
    "prefecture_code": 20,
    "name": "千曲市",
    "capital": false,
    "name_kana": "チクマシ"
  },
  {
    "code": "202193",
    "prefecture_code": 20,
    "name": "東御市",
    "capital": false,
    "name_kana": "トウミシ"
  },
  {
    "code": "202207",
    "prefecture_code": 20,
    "name": "安曇野市",
    "capital": false,
    "name_kana": "アヅミノシ"
  },
  {
    "code": "203033",
    "prefecture_code": 20,
    "name": "小海町",
    "capital": false,
    "name_kana": "コウミマチ"
  },
  {
    "code": "203041",
    "prefecture_code": 20,
    "name": "川上村",
    "capital": false,
    "name_kana": "カワカミムラ"
  },
  {
    "code": "203050",
    "prefecture_code": 20,
    "name": "南牧村",
    "capital": false,
    "name_kana": "ミナミマキムラ"
  },
  {
    "code": "203068",
    "prefecture_code": 20,
    "name": "南相木村",
    "capital": false,
    "name_kana": "ミナミアイキムラ"
  },
  {
    "code": "203076",
    "prefecture_code": 20,
    "name": "北相木村",
    "capital": false,
    "name_kana": "キタアイキムラ"
  },
  {
    "code": "203092",
    "prefecture_code": 20,
    "name": "佐久穂町",
    "capital": false,
    "name_kana": "サクホマチ"
  },
  {
    "code": "203211",
    "prefecture_code": 20,
    "name": "軽井沢町",
    "capital": false,
    "name_kana": "カルイザワマチ"
  },
  {
    "code": "203238",
    "prefecture_code": 20,
    "name": "御代田町",
    "capital": false,
    "name_kana": "ミヨタマチ"
  },
  {
    "code": "203246",
    "prefecture_code": 20,
    "name": "立科町",
    "capital": false,
    "name_kana": "タテシナマチ"
  },
  {
    "code": "203491",
    "prefecture_code": 20,
    "name": "青木村",
    "capital": false,
    "name_kana": "アオキムラ"
  },
  {
    "code": "203505",
    "prefecture_code": 20,
    "name": "長和町",
    "capital": false,
    "name_kana": "ナガワマチ"
  },
  {
    "code": "203611",
    "prefecture_code": 20,
    "name": "下諏訪町",
    "capital": false,
    "name_kana": "シモスワマチ"
  },
  {
    "code": "203629",
    "prefecture_code": 20,
    "name": "富士見町",
    "capital": false,
    "name_kana": "フジミマチ"
  },
  {
    "code": "203637",
    "prefecture_code": 20,
    "name": "原村",
    "capital": false,
    "name_kana": "ハラムラ"
  },
  {
    "code": "203823",
    "prefecture_code": 20,
    "name": "辰野町",
    "capital": false,
    "name_kana": "タツノマチ"
  },
  {
    "code": "203831",
    "prefecture_code": 20,
    "name": "箕輪町",
    "capital": false,
    "name_kana": "ミノワマチ"
  },
  {
    "code": "203840",
    "prefecture_code": 20,
    "name": "飯島町",
    "capital": false,
    "name_kana": "イイジママチ"
  },
  {
    "code": "203858",
    "prefecture_code": 20,
    "name": "南箕輪村",
    "capital": false,
    "name_kana": "ミナミミノワムラ"
  },
  {
    "code": "203866",
    "prefecture_code": 20,
    "name": "中川村",
    "capital": false,
    "name_kana": "ナカガワムラ"
  },
  {
    "code": "203882",
    "prefecture_code": 20,
    "name": "宮田村",
    "capital": false,
    "name_kana": "ミヤダムラ"
  },
  {
    "code": "204021",
    "prefecture_code": 20,
    "name": "松川町",
    "capital": false,
    "name_kana": "マツカワマチ"
  },
  {
    "code": "204030",
    "prefecture_code": 20,
    "name": "高森町",
    "capital": false,
    "name_kana": "タカモリマチ"
  },
  {
    "code": "204048",
    "prefecture_code": 20,
    "name": "阿南町",
    "capital": false,
    "name_kana": "アナンチョウ"
  },
  {
    "code": "204072",
    "prefecture_code": 20,
    "name": "阿智村",
    "capital": false,
    "name_kana": "アチムラ"
  },
  {
    "code": "204099",
    "prefecture_code": 20,
    "name": "平谷村",
    "capital": false,
    "name_kana": "ヒラヤムラ"
  },
  {
    "code": "204102",
    "prefecture_code": 20,
    "name": "根羽村",
    "capital": false,
    "name_kana": "ネバムラ"
  },
  {
    "code": "204111",
    "prefecture_code": 20,
    "name": "下條村",
    "capital": false,
    "name_kana": "シモジョウムラ"
  },
  {
    "code": "204129",
    "prefecture_code": 20,
    "name": "売木村",
    "capital": false,
    "name_kana": "ウルギムラ"
  },
  {
    "code": "204137",
    "prefecture_code": 20,
    "name": "天龍村",
    "capital": false,
    "name_kana": "テンリュウムラ"
  },
  {
    "code": "204145",
    "prefecture_code": 20,
    "name": "泰阜村",
    "capital": false,
    "name_kana": "ヤスオカムラ"
  },
  {
    "code": "204153",
    "prefecture_code": 20,
    "name": "喬木村",
    "capital": false,
    "name_kana": "タカギムラ"
  },
  {
    "code": "204161",
    "prefecture_code": 20,
    "name": "豊丘村",
    "capital": false,
    "name_kana": "トヨオカムラ"
  },
  {
    "code": "204170",
    "prefecture_code": 20,
    "name": "大鹿村",
    "capital": false,
    "name_kana": "オオシカムラ"
  },
  {
    "code": "204226",
    "prefecture_code": 20,
    "name": "上松町",
    "capital": false,
    "name_kana": "アゲマツマチ"
  },
  {
    "code": "204234",
    "prefecture_code": 20,
    "name": "南木曽町",
    "capital": false,
    "name_kana": "ナギソマチ"
  },
  {
    "code": "204251",
    "prefecture_code": 20,
    "name": "木祖村",
    "capital": false,
    "name_kana": "キソムラ"
  },
  {
    "code": "204293",
    "prefecture_code": 20,
    "name": "王滝村",
    "capital": false,
    "name_kana": "オウタキムラ"
  },
  {
    "code": "204307",
    "prefecture_code": 20,
    "name": "大桑村",
    "capital": false,
    "name_kana": "オオクワムラ"
  },
  {
    "code": "204323",
    "prefecture_code": 20,
    "name": "木曽町",
    "capital": false,
    "name_kana": "キソマチ"
  },
  {
    "code": "204463",
    "prefecture_code": 20,
    "name": "麻績村",
    "capital": false,
    "name_kana": "オミムラ"
  },
  {
    "code": "204480",
    "prefecture_code": 20,
    "name": "生坂村",
    "capital": false,
    "name_kana": "イクサカムラ"
  },
  {
    "code": "204501",
    "prefecture_code": 20,
    "name": "山形村",
    "capital": false,
    "name_kana": "ヤマガタムラ"
  },
  {
    "code": "204510",
    "prefecture_code": 20,
    "name": "朝日村",
    "capital": false,
    "name_kana": "アサヒムラ"
  },
  {
    "code": "204528",
    "prefecture_code": 20,
    "name": "筑北村",
    "capital": false,
    "name_kana": "チクホクムラ"
  },
  {
    "code": "204811",
    "prefecture_code": 20,
    "name": "池田町",
    "capital": false,
    "name_kana": "イケダマチ"
  },
  {
    "code": "204820",
    "prefecture_code": 20,
    "name": "松川村",
    "capital": false,
    "name_kana": "マツカワムラ"
  },
  {
    "code": "204854",
    "prefecture_code": 20,
    "name": "白馬村",
    "capital": false,
    "name_kana": "ハクバムラ"
  },
  {
    "code": "204862",
    "prefecture_code": 20,
    "name": "小谷村",
    "capital": false,
    "name_kana": "オタリムラ"
  },
  {
    "code": "205214",
    "prefecture_code": 20,
    "name": "坂城町",
    "capital": false,
    "name_kana": "サカキマチ"
  },
  {
    "code": "205419",
    "prefecture_code": 20,
    "name": "小布施町",
    "capital": false,
    "name_kana": "オブセマチ"
  },
  {
    "code": "205435",
    "prefecture_code": 20,
    "name": "高山村",
    "capital": false,
    "name_kana": "タカヤマムラ"
  },
  {
    "code": "205613",
    "prefecture_code": 20,
    "name": "山ノ内町",
    "capital": false,
    "name_kana": "ヤマノウチマチ"
  },
  {
    "code": "205621",
    "prefecture_code": 20,
    "name": "木島平村",
    "capital": false,
    "name_kana": "キジマダイラムラ"
  },
  {
    "code": "205630",
    "prefecture_code": 20,
    "name": "野沢温泉村",
    "capital": false,
    "name_kana": "ノザワオンセンムラ"
  },
  {
    "code": "205834",
    "prefecture_code": 20,
    "name": "信濃町",
    "capital": false,
    "name_kana": "シナノマチ"
  },
  {
    "code": "205885",
    "prefecture_code": 20,
    "name": "小川村",
    "capital": false,
    "name_kana": "オガワムラ"
  },
  {
    "code": "205907",
    "prefecture_code": 20,
    "name": "飯綱町",
    "capital": false,
    "name_kana": "イイヅナマチ"
  },
  {
    "code": "206024",
    "prefecture_code": 20,
    "name": "栄村",
    "capital": false,
    "name_kana": "サカエムラ"
  }
]
