[
  {
    "code": "212016",
    "prefecture_code": 21,
    "name": "岐阜市",
    "capital": true,
    "name_kana": "ギフシ"
  },
  {
    "code": "212024",
    "prefecture_code": 21,
    "name": "大垣市",
    "capital": false,
    "name_kana": "オオガキシ"
  },
  {
    "code": "212032",
    "prefecture_code": 21,
    "name": "高山市",
    "capital": false,
    "name_kana": "タカヤマシ"
  },
  {
    "code": "212041",
    "prefecture_code": 21,
    "name": "多治見市",
    "capital": false,
    "name_kana": "タジミシ"
  },
  {
    "code": "212059",
    "prefecture_code": 21,
    "name": "関市",
    "capital": false,
    "name_kana": "セキシ"
  },
  {
    "code": "212067",
    "prefecture_code": 21,
    "name": "中津川市",
    "capital": false,
    "name_kana": "ナカツガワシ"
  },
  {
    "code": "212075",
    "prefecture_code": 21,
    "name": "美濃市",
    "capital": false,
    "name_kana": "ミノシ"
  },
  {
    "code": "212083",
    "prefecture_code": 21,
    "name": "瑞浪市",
    "capital": false,
    "name_kana": "ミズナミシ"
  },
  {
    "code": "212091",
    "prefecture_code": 21,
    "name": "羽島市",
    "capital": false,
    "name_kana": "ハシマシ"
  },
  {
    "code": "212105",
    "prefecture_code": 21,
    "name": "恵那市",
    "capital": false,
    "name_kana": "エナシ"
  },
  {
    "code": "212113",
    "prefecture_code": 21,
    "name": "美濃加茂市",
    "capital": false,
    "name_kana": "ミノカモシ"
  },
  {
    "code": "212121",
    "prefecture_code": 21,
    "name": "土岐市",
    "capital": false,
    "name_kana": "トキシ"
  },
  {
    "code": "212130",
    "prefecture_code": 21,
    "name": "各務原市",
    "capital": false,
    "name_kana": "カカミガハラシ"
  },
  {
    "code": "212148",
    "prefecture_code": 21,
    "name": "可児市",
    "capital": false,
    "name_kana": "カニシ"
  },
  {
    "code": "212156",
    "prefecture_code": 21,
    "name": "山県市",
    "capital": false,
    "name_kana": "ヤマガタシ"
  },
  {
    "code": "212164",
    "prefecture_code": 21,
    "name": "瑞穂市",
    "capital": false,
    "name_kana": "ミズホシ"
  },
  {
    "code": "212172",
    "prefecture_code": 21,
    "name": "飛騨市",
    "capital": false,
    "name_kana": "ヒダシ"
  },
  {
    "code": "212181",
    "prefecture_code": 21,
    "name": "本巣市",
    "capital": false,
    "name_kana": "モトスシ"
  },
  {
    "code": "212199",
    "prefecture_code": 21,
    "name": "郡上市",
    "capital": false,
    "name_kana": "グジョウシ"
  },
  {
    "code": "212202",
    "prefecture_code": 21,
    "name": "下呂市",
    "capital": false,
    "name_kana": "ゲロシ"
  },
  {
    "code": "212211",
    "prefecture_code": 21,
    "name": "海津市",
    "capital": false,
    "name_kana": "カイヅシ"
  },
  {
    "code": "213021",
    "prefecture_code": 21,
    "name": "岐南町",
    "capital": false,
    "name_kana": "ギナンチョウ"
  },
  {
    "code": "213039",
    "prefecture_code": 21,
    "name": "笠松町",
    "capital": false,
    "name_kana": "カサマツチョウ"
  },
  {
    "code": "213411",
    "prefecture_code": 21,
    "name": "養老町",
    "capital": false,
    "name_kana": "ヨウロウチョウ"
  },
  {
    "code": "213616",
    "prefecture_code": 21,
    "name": "垂井町",
    "capital": false,
    "name_kana": "タルイチョウ"
  },
  {
    "code": "213624",
    "prefecture_code": 21,
    "name": "関ケ原町",
    "capital": false,
    "name_kana": "セキガハラチョウ"
  },
  {
    "code": "213811",
    "prefecture_code": 21,
    "name": "神戸町",
    "capital": false,
    "name_kana": "ゴウドチョウ"
  },
  {
    "code": "213829",
    "prefecture_code": 21,
    "name": "輪之内町",
    "capital": false,
    "name_kana": "ワノウチチョウ"
  },
  {
    "code": "213837",
    "prefecture_code": 21,
    "name": "安八町",
    "capital": false,
    "name_kana": "アンパチチョウ"
  },
  {
    "code": "214019",
    "prefecture_code": 21,
    "name": "揖斐川町",
    "capital": false,
    "name_kana": "イビガワチョウ"
  },
  {
    "code": "214035",
    "prefecture_code": 21,
    "name": "大野町",
    "capital": false,
    "name_kana": "オオノチョウ"
  },
  {
    "code": "214043",
    "prefecture_code": 21,
    "name": "池田町",
    "capital": false,
    "name_kana": "イケダチョウ"
  },
  {
    "code": "214213",
    "prefecture_code": 21,
    "name": "北方町",
    "capital": false,
    "name_kana": "キタガタチョウ"
  },
  {
    "code": "215015",
    "prefecture_code": 21,
    "name": "坂祝町",
    "capital": false,
    "name_kana": "サカホギチョウ"
  },
  {
    "code": "215023",
    "prefecture_code": 21,
    "name": "富加町",
    "capital": false,
    "name_kana": "トミカチョウ"
  },
  {
    "code": "215031",
    "prefecture_code": 21,
    "name": "川辺町",
    "capital": false,
    "name_kana": "カワベチョウ"
  },
  {
    "code": "215040",
    "prefecture_code": 21,
    "name": "七宗町",
    "capital": false,
    "name_kana": "ヒチソウチョウ"
  },
  {
    "code": "215058",
    "prefecture_code": 21,
    "name": "八百津町",
    "capital": false,
    "name_kana": "ヤオツチョウ"
  },
  {
    "code": "215066",
    "prefecture_code": 21,
    "name": "白川町",
    "capital": false,
    "name_kana": "シラカワチョウ"
  },
  {
    "code": "215074",
    "prefecture_code": 21,
    "name": "東白川村",
    "capital": false,
    "name_kana": "ヒガシシラカワムラ"
  },
  {
    "code": "215210",
    "prefecture_code": 21,
    "name": "御嵩町",
    "capital": false,
    "name_kana": "ミタケチョウ"
  },
  {
    "code": "216046",
    "prefecture_code": 21,
    "name": "白川村",
    "capital": false,
    "name_kana": "シラカワムラ"
  }
]
