[
  {
    "code": "252018",
    "prefecture_code": 25,
    "name": "大津市",
    "capital": true,
    "name_kana": "オオツシ"
  },
  {
    "code": "252026",
    "prefecture_code": 25,
    "name": "彦根市",
    "capital": false,
    "name_kana": "ヒコネシ"
  },
  {
    "code": "252034",
    "prefecture_code": 25,
    "name": "長浜市",
    "capital": false,
    "name_kana": "ナガハマシ"
  },
  {
    "code": "252042",
    "prefecture_code": 25,
    "name": "近江八幡市",
    "capital": false,
    "name_kana": "オウミハチマンシ"
  },
  {
    "code": "252069",
    "prefecture_code": 25,
    "name": "草津市",
    "capital": false,
    "name_kana": "クサツシ"
  },
  {
    "code": "252077",
    "prefecture_code": 25,
    "name": "守山市",
    "capital": false,
    "name_kana": "モリヤマシ"
  },
  {
    "code": "252085",
    "prefecture_code": 25,
    "name": "栗東市",
    "capital": false,
    "name_kana": "リットウシ"
  },
  {
    "code": "252093",
    "prefecture_code": 25,
    "name": "甲賀市",
    "capital": false,
    "name_kana": "コウカシ"
  },
  {
    "code": "252107",
    "prefecture_code": 25,
    "name": "野洲市",
    "capital": false,
    "name_kana": "ヤスシ"
  },
  {
    "code": "252115",
    "prefecture_code": 25,
    "name": "湖南市",
    "capital": false,
    "name_kana": "コナンシ"
  },
  {
    "code": "252123",
    "prefecture_code": 25,
    "name": "高島市",
    "capital": false,
    "name_kana": "タカシマシ"
  },
  {
    "code": "252131",
    "prefecture_code": 25,
    "name": "東近江市",
    "capital": false,
    "name_kana": "ヒガシオウミシ"
  },
  {
    "code": "252140",
    "prefecture_code": 25,
    "name": "米原市",
    "capital": false,
    "name_kana": "マイバラシ"
  },
  {
    "code": "253839",
    "prefecture_code": 25,
    "name": "日野町",
    "capital": false,
    "name_kana": "ヒノチョウ"
  },
  {
    "code": "253847",
    "prefecture_code": 25,
    "name": "竜王町",
    "capital": false,
    "name_kana": "リユウオウチョウ"
  },
  {
    "code": "254258",
    "prefecture_code": 25,
    "name": "愛荘町",
    "capital": false,
    "name_kana": "アイショウチョウ"
  },
  {
    "code": "254410",
    "prefecture_code": 25,
    "name": "豊郷町",
    "capital": false,
    "name_kana": "トヨサトチョウ"
  },
  {
    "code": "254428",
    "prefecture_code": 25,
    "name": "甲良町",
    "capital": false,
    "name_kana": "コウラチョウ"
  },
  {
    "code": "254436",
    "prefecture_code": 25,
    "name": "多賀町",
    "capital": false,
    "name_kana": "タガチョウ"
  }
]
