[
  {
    "code": "261009",
    "prefecture_code": 26,
    "name": "京都市",
    "capital": true,
    "name_kana": "キョウトシ"
  },
  {
    "code": "261017",
    "prefecture_code": 26,
    "name": "京都市北区",
    "capital": false,
    "name_kana": "キョウトシキタク"
  },
  {
    "code": "261025",
    "prefecture_code": 26,
    "name": "京都市上京区",
    "capital": false,
    "name_kana": "キョウトシカミギョウク"
  },
  {
    "code": "261033",
    "prefecture_code": 26,
    "name": "京都市左京区",
    "capital": false,
    "name_kana": "キョウトシサキョウク"
  },
  {
    "code": "261041",
    "prefecture_code": 26,
    "name": "京都市中京区",
    "capital": false,
    "name_kana": "キョウトシナカギョウク"
  },
  {
    "code": "261050",
    "prefecture_code": 26,
    "name": "京都市東山区",
    "capital": false,
    "name_kana": "キョウトシヒガシヤマク"
  },
  {
    "code": "261068",
    "prefecture_code": 26,
    "name": "京都市下京区",
    "capital": false,
    "name_kana": "キョウトシシモギョウク"
  },
  {
    "code": "261076",
    "prefecture_code": 26,
    "name": "京都市南区",
    "capital": false,
    "name_kana": "キョウトシミナミク"
  },
  {
    "code": "261084",
    "prefecture_code": 26,
    "name": "京都市右京区",
    "capital": false,
    "name_kana": "キョウトシウキョウク"
  },
  {
    "code": "261092",
    "prefecture_code": 26,
    "name": "京都市伏見区",
    "capital": false,
    "name_kana": "キョウトシフシミク"
  },
  {
    "code": "261106",
    "prefecture_code": 26,
    "name": "京都市山科区",
    "capital": false,
    "name_kana": "キョウトシヤマシナク"
  },
  {
    "code": "261114",
    "prefecture_code": 26,
    "name": "京都市西京区",
    "capital": false,
    "name_kana": "キョウトシニシキョウク"
  },
  {
    "code": "262013",
    "prefecture_code": 26,
    "name": "福知山市",
    "capital": false,
    "name_kana": "フクチヤマシ"
  },
  {
    "code": "262021",
    "prefecture_code": 26,
    "name": "舞鶴市",
    "capital": false,
    "name_kana": "マイヅルシ"
  },
  {
    "code": "262030",
    "prefecture_code": 26,
    "name": "綾部市",
    "capital": false,
    "name_kana": "アヤベシ"
  },
  {
    "code": "262048",
    "prefecture_code": 26,
    "name": "宇治市",
    "capital": false,
    "name_kana": "ウジシ"
  },
  {
    "code": "262056",
    "prefecture_code": 26,
    "name": "宮津市",
    "capital": false,
    "name_kana": "ミヤヅシ"
  },
  {
    "code": "262064",
    "prefecture_code": 26,
    "name": "亀岡市",
    "capital": false,
    "name_kana": "カメオカシ"
  },
  {
    "code": "262072",
    "prefecture_code": 26,
    "name": "城陽市",
    "capital": false,
    "name_kana": "ジョウヨウシ"
  },
  {
    "code": "262081",
    "prefecture_code": 26,
    "name": "向日市",
    "capital": false,
    "name_kana": "ムコウシ"
  },
  {
    "code": "262099",
    "prefecture_code": 26,
    "name": "長岡京市",
    "capital": false,
    "name_kana": "ナガオカキョウシ"
  },
  {
    "code": "262102",
    "prefecture_code": 26,
    "name": "八幡市",
    "capital": false,
    "name_kana": "ヤワタシ"
  },
  {
    "code": "262111",
    "prefecture_code": 26,
    "name": "京田辺市",
    "capital": false,
    "name_kana": "キョウタナベシ"
  },
  {
    "code": "262129",
    "prefecture_code": 26,
    "name": "京丹後市",
    "capital": false,
    "name_kana": "キョウタンゴシ"
  },
  {
    "code": "262137",
    "prefecture_code": 26,
    "name": "南丹市",
    "capital": false,
    "name_kana": "ナンタンシ"
  },
  {
    "code": "262145",
    "prefecture_code": 26,
    "name": "木津川市",
    "capital": false,
    "name_kana": "キヅガワシ"
  },
  {
    "code": "263036",
    "prefecture_code": 26,
    "name": "大山崎町",
    "capital": false,
    "name_kana": "オオヤマザキチョウ"
  },
  {
    "code": "263222",
    "prefecture_code": 26,
    "name": "久御山町",
    "capital": false,
    "name_kana": "クミヤマチョウ"
  },
  {
    "code": "263435",
    "prefecture_code": 26,
    "name": "井手町",
    "capital": false,
    "name_kana": "イデチョウ"
  },
  {
    "code": "263443",
    "prefecture_code": 26,
    "name": "宇治田原町",
    "capital": false,
    "name_kana": "ウジタワラチョウ"
  },
  {
    "code": "263648",
    "prefecture_code": 26,
    "name": "笠置町",
    "capital": false,
    "name_kana": "カサギチョウ"
  },
  {
    "code": "263656",
    "prefecture_code": 26,
    "name": "和束町",
    "capital": false,
    "name_kana": "ワヅカチョウ"
  },
  {
    "code": "263664",
    "prefecture_code": 26,
    "name": "精華町",
    "capital": false,
    "name_kana": "セイカチョウ"
  },
  {
    "code": "263672",
    "prefecture_code": 26,
    "name": "南山城村",
    "capital": false,
    "name_kana": "ミナミヤマシロムラ"
  },
  {
    "code": "264075",
    "prefecture_code": 26,
    "name": "京丹波町",
    "capital": false,
    "name_kana": "キョウタンバチョウ"
  },
  {
    "code": "264636",
    "prefecture_code": 26,
    "name": "伊根町",
    "capital": false,
    "name_kana": "イネチョウ"
  },
  {
    "code": "264652",
    "prefecture_code": 26,
    "name": "与謝野町",
    "capital": false,
    "name_kana": "ヨサノチョウ"
  }
]
