[
  {
    "code": "281000",
    "prefecture_code": 28,
    "name": "神戸市",
    "capital": true,
    "name_kana": "コウベシ"
  },
  {
    "code": "281018",
    "prefecture_code": 28,
    "name": "神戸市東灘区",
    "capital": false,
    "name_kana": "コウベシヒガシナダク"
  },
  {
    "code": "281026",
    "prefecture_code": 28,
    "name": "神戸市灘区",
    "capital": false,
    "name_kana": "コウベシナダク"
  },
  {
    "code": "281051",
    "prefecture_code": 28,
    "name": "神戸市兵庫区",
    "capital": false,
    "name_kana": "コウベシヒョウゴク"
  },
  {
    "code": "281069",
    "prefecture_code": 28,
    "name": "神戸市長田区",
    "capital": false,
    "name_kana": "コウベシナガタク"
  },
  {
    "code": "281077",
    "prefecture_code": 28,
    "name": "神戸市須磨区",
    "capital": false,
    "name_kana": "コウベシスマク"
  },
  {
    "code": "281085",
    "prefecture_code": 28,
    "name": "神戸市垂水区",
    "capital": false,
    "name_kana": "コウベシタルミク"
  },
  {
    "code": "281093",
    "prefecture_code": 28,
    "name": "神戸市北区",
    "capital": false,
    "name_kana": "コウベシキタク"
  },
  {
    "code": "281107",
    "prefecture_code": 28,
    "name": "神戸市中央区",
    "capital": false,
    "name_kana": "コウベシチュウオウク"
  },
  {
    "code": "281115",
    "prefecture_code": 28,
    "name": "神戸市西区",
    "capital": false,
    "name_kana": "コウベシニシク"
  },
  {
    "code": "282014",
    "prefecture_code": 28,
    "name": "姫路市",
    "capital": false,
    "name_kana": "ヒメジシ"
  },
  {
    "code": "282022",
    "prefecture_code": 28,
    "name": "尼崎市",
    "capital": false,
    "name_kana": "アマガサキシ"
  },
  {
    "code": "282031",
    "prefecture_code": 28,
    "name": "明石市",
    "capital": false,
    "name_kana": "アカシシ"
  },
  {
    "code": "282049",
    "prefecture_code": 28,
    "name": "西宮市",
    "capital": false,
    "name_kana": "ニシノミヤシ"
  },
  {
    "code": "282057",
    "prefecture_code": 28,
    "name": "洲本市",
    "capital": false,
    "name_kana": "スモトシ"
  },
  {
    "code": "282065",
    "prefecture_code": 28,
    "name": "芦屋市",
    "capital": false,
    "name_kana": "アシヤシ"
  },
  {
    "code": "282073",
    "prefecture_code": 28,
    "name": "伊丹市",
    "capital": false,
    "name_kana": "イタミシ"
  },
  {
    "code": "282081",
    "prefecture_code": 28,
    "name": "相生市",
    "capital": false,
    "name_kana": "アイオイシ"
  },
  {
    "code": "282090",
    "prefecture_code": 28,
    "name": "豊岡市",
    "capital": false,
    "name_kana": "トヨオカシ"
  },
  {
    "code": "282103",
    "prefecture_code": 28,
    "name": "加古川市",
    "capital": false,
    "name_kana": "カコガワシ"
  },
  {
    "code": "282120",
    "prefecture_code": 28,
    "name": "赤穂市",
    "capital": false,
    "name_kana": "アコウシ"
  },
  {
    "code": "282138",
    "prefecture_code": 28,
    "name": "西脇市",
    "capital": false,
    "name_kana": "ニシワキシ"
  },
  {
    "code": "282146",
    "prefecture_code": 28,
    "name": "宝塚市",
    "capital": false,
    "name_kana": "タカラヅカシ"
  },
  {
    "code": "282154",
    "prefecture_code": 28,
    "name": "三木市",
    "capital": false,
    "name_kana": "ミキシ"
  },
  {
    "code": "282162",
    "prefecture_code": 28,
    "name": "高砂市",
    "capital": false,
    "name_kana": "タカサゴシ"
  },
  {
    "code": "282171",
    "prefecture_code": 28,
    "name": "川西市",
    "capital": false,
    "name_kana": "カワニシシ"
  },
  {
    "code": "282189",
    "prefecture_code": 28,
    "name": "小野市",
    "capital": false,
    "name_kana": "オノシ"
  },
  {
    "code": "282197",
    "prefecture_code": 28,
    "name": "三田市",
    "capital": false,
    "name_kana": "サンダシ"
  },
  {
    "code": "282201",
    "prefecture_code": 28,
    "name": "加西市",
    "capital": false,
    "name_kana": "カサイシ"
  },
  {
    "code": "282219",
    "prefecture_code": 28,
    "name": "丹波篠山市",
    "capital": false,
    "name_kana": "タンバササヤマシ"
  },
  {
    "code": "282227",
    "prefecture_code": 28,
    "name": "養父市",
    "capital": false,
    "name_kana": "ヤブシ"
  },
  {
    "code": "282235",
    "prefecture_code": 28,
    "name": "丹波市",
    "capital": false,
    "name_kana": "タンバシ"
  },
  {
    "code": "282243",
    "prefecture_code": 28,
    "name": "南あわじ市",
    "capital": false,
    "name_kana": "ミナミアワジシ"
  },
  {
    "code": "282251",
    "prefecture_code": 28,
    "name": "朝来市",
    "capital": false,
    "name_kana": "アサゴシ"
  },
  {
    "code": "282260",
    "prefecture_code": 28,
    "name": "淡路市",
    "capital": false,
    "name_kana": "アワジシ"
  },
  {
    "code": "282278",
    "prefecture_code": 28,
    "name": "宍粟市",
    "capital": false,
    "name_kana": "シソウシ"
  },
  {
    "code": "282286",
    "prefecture_code": 28,
    "name": "加東市",
    "capital": false,
    "name_kana": "カトウシ"
  },
  {
    "code": "282294",
    "prefecture_code": 28,
    "name": "たつの市",
    "capital": false,
    "name_kana": "タツノシ"
  },
  {
    "code": "283011",
    "prefecture_code": 28,
    "name": "猪名川町",
    "capital": false,
    "name_kana": "イナガワチョウ"
  },
  {
    "code": "283657",
    "prefecture_code": 28,
    "name": "多可町",
    "capital": false,
    "name_kana": "タカチョウ"
  },
  {
    "code": "283819",
    "prefecture_code": 28,
    "name": "稲美町",
    "capital": false,
    "name_kana": "イナミチョウ"
  },
  {
    "code": "283827",
    "prefecture_code": 28,
    "name": "播磨町",
    "capital": false,
    "name_kana": "ハリマチョウ"
  },
  {
    "code": "284424",
    "prefecture_code": 28,
    "name": "市川町",
    "capital": false,
    "name_kana": "イチカワチョウ"
  },
  {
    "code": "284432",
    "prefecture_code": 28,
    "name": "福崎町",
    "capital": false,
    "name_kana": "フクサキチョウ"
  },
  {
    "code": "284467",
    "prefecture_code": 28,
    "name": "神河町",
    "capital": false,
    "name_kana": "カミカワチョウ"
  },
  {
    "code": "284645",
    "prefecture_code": 28,
    "name": "太子町",
    "capital": false,
    "name_kana": "タイシチョウ"
  },
  {
    "code": "284815",
    "prefecture_code": 28,
    "name": "上郡町",
    "capital": false,
    "name_kana": "カミゴオリチョウ"
  },
  {
    "code": "285013",
    "prefecture_code": 28,
    "name": "佐用町",
    "capital": false,
    "name_kana": "サヨウチョウ"
  },
  {
    "code": "285854",
    "prefecture_code": 28,
    "name": "香美町",
    "capital": false,
    "name_kana": "カミチョウ"
  },
  {
    "code": "285862",
    "prefecture_code": 28,
    "name": "新温泉町",
    "capital": false,
    "name_kana": "シンオンセンチョウ"
  }
]
