[
  {
    "code": "312011",
    "prefecture_code": 31,
    "name": "鳥取市",
    "capital": true,
    "name_kana": "トットリシ"
  },
  {
    "code": "312029",
    "prefecture_code": 31,
    "name": "米子市",
    "capital": false,
    "name_kana": "ヨナゴシ"
  },
  {
    "code": "312037",
    "prefecture_code": 31,
    "name": "倉吉市",
    "capital": false,
    "name_kana": "クラヨシシ"
  },
  {
    "code": "312045",
    "prefecture_code": 31,
    "name": "境港市",
    "capital": false,
    "name_kana": "サカイミナトシ"
  },
  {
    "code": "313025",
    "prefecture_code": 31,
    "name": "岩美町",
    "capital": false,
    "name_kana": "イワミチョウ"
  },
  {
    "code": "313254",
    "prefecture_code": 31,
    "name": "若桜町",
    "capital": false,
    "name_kana": "ワカサチョウ"
  },
  {
    "code": "313289",
    "prefecture_code": 31,
    "name": "智頭町",
    "capital": false,
    "name_kana": "チヅチョウ"
  },
  {
    "code": "313297",
    "prefecture_code": 31,
    "name": "八頭町",
    "capital": false,
    "name_kana": "ヤズチョウ"
  },
  {
    "code": "313645",
    "prefecture_code": 31,
    "name": "三朝町",
    "capital": false,
    "name_kana": "ミササチョウ"
  },
  {
    "code": "313700",
    "prefecture_code": 31,
    "name": "湯梨浜町",
    "capital": false,
    "name_kana": "ユリハマチョウ"
  },
  {
    "code": "313718",
    "prefecture_code": 31,
    "name": "琴浦町",
    "capital": false,
    "name_kana": "コトウラチョウ"
  },
  {
    "code": "313726",
    "prefecture_code": 31,
    "name": "北栄町",
    "capital": false,
    "name_kana": "ホクエイチョウ"
  },
  {
    "code": "313840",
    "prefecture_code": 31,
    "name": "日吉津村",
    "capital": false,
    "name_kana": "ヒエヅソン"
  },
  {
    "code": "313866",
    "prefecture_code": 31,
    "name": "大山町",
    "capital": false,
    "name_kana": "ダイセンチョウ"
  },
  {
    "code": "313891",
    "prefecture_code": 31,
    "name": "南部町",
    "capital": false,
    "name_kana": "ナンブチョウ"
  },
  {
    "code": "313904",
    "prefecture_code": 31,
    "name": "伯耆町",
    "capital": false,
    "name_kana": "ホウキチョウ"
  },
  {
    "code": "314013",
    "prefecture_code": 31,
    "name": "日南町",
    "capital": false,
    "name_kana": "ニチナンチョウ"
  },
  {
    "code": "314021",
    "prefecture_code": 31,
    "name": "日野町",
    "capital": false,
    "name_kana": "ヒノチョウ"
  },
  {
    "code": "314030",
    "prefecture_code": 31,
    "name": "江府町",
    "capital": false,
    "name_kana": "コウフチョウ"
  }
]
