[
  {
    "code": "322016",
    "prefecture_code": 32,
    "name": "松江市",
    "capital": true,
    "name_kana": "マツエシ"
  },
  {
    "code": "322024",
    "prefecture_code": 32,
    "name": "浜田市",
    "capital": false,
    "name_kana": "ハマダシ"
  },
  {
    "code": "322032",
    "prefecture_code": 32,
    "name": "出雲市",
    "capital": false,
    "name_kana": "イズモシ"
  },
  {
    "code": "322041",
    "prefecture_code": 32,
    "name": "益田市",
    "capital": false,
    "name_kana": "マスダシ"
  },
  {
    "code": "322059",
    "prefecture_code": 32,
    "name": "大田市",
    "capital": false,
    "name_kana": "オオダシ"
  },
  {
    "code": "322067",
    "prefecture_code": 32,
    "name": "安来市",
    "capital": false,
    "name_kana": "ヤスギシ"
  },
  {
    "code": "322075",
    "prefecture_code": 32,
    "name": "江津市",
    "capital": false,
    "name_kana": "ゴウツシ"
  },
  {
    "code": "322091",
    "prefecture_code": 32,
    "name": "雲南市",
    "capital": false,
    "name_kana": "ウンナンシ"
  },
  {
    "code": "323438",
    "prefecture_code": 32,
    "name": "奥出雲町",
    "capital": false,
    "name_kana": "オクイズモチョウ"
  },
  {
    "code": "323861",
    "prefecture_code": 32,
    "name": "飯南町",
    "capital": false,
    "name_kana": "イイナンチョウ"
  },
  {
    "code": "324418",
    "prefecture_code": 32,
    "name": "川本町",
    "capital": false,
    "name_kana": "カワモトマチ"
  },
  {
    "code": "324485",
    "prefecture_code": 32,
    "name": "美郷町",
    "capital": false,
    "name_kana": "ミサトチョウ"
  },
  {
    "code": "324493",
    "prefecture_code": 32,
    "name": "邑南町",
    "capital": false,
    "name_kana": "オオナンチョウ"
  },
  {
    "code": "325015",
    "prefecture_code": 32,
    "name": "津和野町",
    "capital": false,
    "name_kana": "ツワノチョウ"
  },
  {
    "code": "325058",
    "prefecture_code": 32,
    "name": "吉賀町",
    "capital": false,
    "name_kana": "ヨシカチョウ"
  },
  {
    "code": "325252",
    "prefecture_code": 32,
    "name": "海士町",
    "capital": false,
    "name_kana": "アマチョウ"
  },
  {
    "code": "325261",
    "prefecture_code": 32,
    "name": "西ノ島町",
    "capital": false,
    "name_kana": "ニシノシマチョウ"
  },
  {
    "code": "325279",
    "prefecture_code": 32,
    "name": "知夫村",
    "capital": false,
    "name_kana": "チブムラ"
  },
  {
    "code": "325287",
    "prefecture_code": 32,
    "name": "隠岐の島町",
    "capital": false,
    "name_kana": "オキノシマチョウ"
  }
]
