[
  {
    "code": "352012",
    "prefecture_code": 35,
    "name": "下関市",
    "capital": false,
    "name_kana": "シモノセキシ"
  },
  {
    "code": "352021",
    "prefecture_code": 35,
    "name": "宇部市",
    "capital": false,
    "name_kana": "ウベシ"
  },
  {
    "code": "352039",
    "prefecture_code": 35,
    "name": "山口市",
    "capital": true,
    "name_kana": "ヤマグチシ"
  },
  {
    "code": "352047",
    "prefecture_code": 35,
    "name": "萩市",
    "capital": false,
    "name_kana": "ハギシ"
  },
  {
    "code": "352063",
    "prefecture_code": 35,
    "name": "防府市",
    "capital": false,
    "name_kana": "ホウフシ"
  },
  {
    "code": "352071",
    "prefecture_code": 35,
    "name": "下松市",
    "capital": false,
    "name_kana": "クダマツシ"
  },
  {
    "code": "352080",
    "prefecture_code": 35,
    "name": "岩国市",
    "capital": false,
    "name_kana": "イワクニシ"
  },
  {
    "code": "352101",
    "prefecture_code": 35,
    "name": "光市",
    "capital": false,
    "name_kana": "ヒカリシ"
  },
  {
    "code": "352110",
    "prefecture_code": 35,
    "name": "長門市",
    "capital": false,
    "name_kana": "ナガトシ"
  },
  {
    "code": "352128",
    "prefecture_code": 35,
    "name": "柳井市",
    "capital": false,
    "name_kana": "ヤナイシ"
  },
  {
    "code": "352136",
    "prefecture_code": 35,
    "name": "美祢市",
    "capital": false,
    "name_kana": "ミネシ"
  },
  {
    "code": "352152",
    "prefecture_code": 35,
    "name": "周南市",
    "capital": false,
    "name_kana": "シュウナンシ"
  },
  {
    "code": "352161",
    "prefecture_code": 35,
    "name": "山陽小野田市",
    "capital": false,
    "name_kana": "サンヨウオノダシ"
  },
  {
    "code": "353051",
    "prefecture_code": 35,
    "name": "周防大島町",
    "capital": false,
    "name_kana": "スオウオオシマチョウ"
  },
  {
    "code": "353213",
    "prefecture_code": 35,
    "name": "和木町",
    "capital": false,
    "name_kana": "ワキチョウ"
  },
  {
    "code": "353418",
    "prefecture_code": 35,
    "name": "上関町",
    "capital": false,
    "name_kana": "カミノセキチョウ"
  },
  {
    "code": "353434",
    "prefecture_code": 35,
    "name": "田布施町",
    "capital": false,
    "name_kana": "タブセチョウ"
  },
  {
    "code": "353442",
    "prefecture_code": 35,
    "name": "平生町",
    "capital": false,
    "name_kana": "ヒラオチョウ"
  },
  {
    "code": "355020",
    "prefecture_code": 35,
    "name": "阿武町",
    "capital": false,
    "name_kana": "アブチョウ"
  }
]
