[
  {
    "code": "372013",
    "prefecture_code": 37,
    "name": "高松市",
    "capital": true,
    "name_kana": "タカマツシ"
  },
  {
    "code": "372021",
    "prefecture_code": 37,
    "name": "丸亀市",
    "capital": false,
    "name_kana": "マルガメシ"
  },
  {
    "code": "372030",
    "prefecture_code": 37,
    "name": "坂出市",
    "capital": false,
    "name_kana": "サカイデシ"
  },
  {
    "code": "372048",
    "prefecture_code": 37,
    "name": "善通寺市",
    "capital": false,
    "name_kana": "ゼンツウジシ"
  },
  {
    "code": "372056",
    "prefecture_code": 37,
    "name": "観音寺市",
    "capital": false,
    "name_kana": "カンオンジシ"
  },
  {
    "code": "372064",
    "prefecture_code": 37,
    "name": "さぬき市",
    "capital": false,
    "name_kana": "サヌキシ"
  },
  {
    "code": "372072",
    "prefecture_code": 37,
    "name": "東かがわ市",
    "capital": false,
    "name_kana": "ヒガシカガワシ"
  },
  {
    "code": "372081",
    "prefecture_code": 37,
    "name": "三豊市",
    "capital": false,
    "name_kana": "ミトヨシ"
  },
  {
    "code": "373222",
    "prefecture_code": 37,
    "name": "土庄町",
    "capital": false,
    "name_kana": "トノショウチョウ"
  },
  {
    "code": "373249",
    "prefecture_code": 37,
    "name": "小豆島町",
    "capital": false,
    "name_kana": "ショウドシマチョウ"
  },
  {
    "code": "373419",
    "prefecture_code": 37,
    "name": "三木町",
    "capital": false,
    "name_kana": "ミキチョウ"
  },
  {
    "code": "373648",
    "prefecture_code": 37,
    "name": "直島町",
    "capital": false,
    "name_kana": "ナオシマチョウ"
  },
  {
    "code": "373869",
    "prefecture_code": 37,
    "name": "宇多津町",
    "capital": false,
    "name_kana": "ウタヅチョウ"
  },
  {
    "code": "373877",
    "prefecture_code": 37,
    "name": "綾川町",
    "capital": false,
    "name_kana": "アヤガワチョウ"
  },
  {
    "code": "374032",
    "prefecture_code": 37,
    "name": "琴平町",
    "capital": false,
    "name_kana": "コトヒラチョウ"
  },
  {
    "code": "374041",
    "prefecture_code": 37,
    "name": "多度津町",
    "capital": false,
    "name_kana": "タドツチョウ"
  },
  {
    "code": "374067",
    "prefecture_code": 37,
    "name": "まんのう町",
    "capital": false,
    "name_kana": "マンノウチョウ"
  }
]
