[
  {
    "code": "382019",
    "prefecture_code": 38,
    "name": "松山市",
    "capital": true,
    "name_kana": "マツヤマシ"
  },
  {
    "code": "382027",
    "prefecture_code": 38,
    "name": "今治市",
    "capital": false,
    "name_kana": "イマバリシ"
  },
  {
    "code": "382035",
    "prefecture_code": 38,
    "name": "宇和島市",
    "capital": false,
    "name_kana": "ウワジマシ"
  },
  {
    "code": "382043",
    "prefecture_code": 38,
    "name": "八幡浜市",
    "capital": false,
    "name_kana": "ヤワタハマシ"
  },
  {
    "code": "382051",
    "prefecture_code": 38,
    "name": "新居浜市",
    "capital": false,
    "name_kana": "ニイハマシ"
  },
  {
    "code": "382060",
    "prefecture_code": 38,
    "name": "西条市",
    "capital": false,
    "name_kana": "サイジョウシ"
  },
  {
    "code": "382078",
    "prefecture_code": 38,
    "name": "大洲市",
    "capital": false,
    "name_kana": "オオズシ"
  },
  {
    "code": "382108",
    "prefecture_code": 38,
    "name": "伊予市",
    "capital": false,
    "name_kana": "イヨシ"
  },
  {
    "code": "382132",
    "prefecture_code": 38,
    "name": "四国中央市",
    "capital": false,
    "name_kana": "シコクチュウオウシ"
  },
  {
    "code": "382141",
    "prefecture_code": 38,
    "name": "西予市",
    "capital": false,
    "name_kana": "セイヨシ"
  },
  {
    "code": "382159",
    "prefecture_code": 38,
    "name": "東温市",
    "capital": false,
    "name_kana": "トウオンシ"
  },
  {
    "code": "383562",
    "prefecture_code": 38,
    "name": "上島町",
    "capital": false,
    "name_kana": "カミジマチョウ"
  },
  {
    "code": "383864",
    "prefecture_code": 38,
    "name": "久万高原町",
    "capital": false,
    "name_kana": "クマコウゲンチョウ"
  },
  {
    "code": "384011",
    "prefecture_code": 38,
    "name": "松前町",
    "capital": false,
    "name_kana": "マサキチョウ"
  },
  {
    "code": "384020",
    "prefecture_code": 38,
    "name": "砥部町",
    "capital": false,
    "name_kana": "トベチョウ"
  },
  {
    "code": "384224",
    "prefecture_code": 38,
    "name": "内子町",
    "capital": false,
    "name_kana": "ウチコチョウ"
  },
  {
    "code": "384429",
    "prefecture_code": 38,
    "name": "伊方町",
    "capital": false,
    "name_kana": "イカタチョウ"
  },
  {
    "code": "384844",
    "prefecture_code": 38,
    "name": "松野町",
    "capital": false,
    "name_kana": "マツノチョウ"
  },
  {
    "code": "384887",
    "prefecture_code": 38,
    "name": "鬼北町",
    "capital": false,
    "name_kana": "キホクチョウ"
  },
  {
    "code": "385069",
    "prefecture_code": 38,
    "name": "愛南町",
    "capital": false,
    "name_kana": "アイナンチョウ"
  }
]
