[
  {
    "code": "412015",
    "prefecture_code": 41,
    "name": "佐賀市",
    "capital": true,
    "name_kana": "サガシ"
  },
  {
    "code": "412023",
    "prefecture_code": 41,
    "name": "唐津市",
    "capital": false,
    "name_kana": "カラツシ"
  },
  {
    "code": "412031",
    "prefecture_code": 41,
    "name": "鳥栖市",
    "capital": false,
    "name_kana": "トスシ"
  },
  {
    "code": "412040",
    "prefecture_code": 41,
    "name": "多久市",
    "capital": false,
    "name_kana": "タクシ"
  },
  {
    "code": "412058",
    "prefecture_code": 41,
    "name": "伊万里市",
    "capital": false,
    "name_kana": "イマリシ"
  },
  {
    "code": "412066",
    "prefecture_code": 41,
    "name": "武雄市",
    "capital": false,
    "name_kana": "タケオシ"
  },
  {
    "code": "412074",
    "prefecture_code": 41,
    "name": "鹿島市",
    "capital": false,
    "name_kana": "カシマシ"
  },
  {
    "code": "412082",
    "prefecture_code": 41,
    "name": "小城市",
    "capital": false,
    "name_kana": "オギシ"
  },
  {
    "code": "412091",
    "prefecture_code": 41,
    "name": "嬉野市",
    "capital": false,
    "name_kana": "ウレシノシ"
  },
  {
    "code": "412104",
    "prefecture_code": 41,
    "name": "神埼市",
    "capital": false,
    "name_kana": "カンザキシ"
  },
  {
    "code": "413275",
    "prefecture_code": 41,
    "name": "吉野ヶ里町",
    "capital": false,
    "name_kana": "ヨシノガリチョウ"
  },
  {
    "code": "413411",
    "prefecture_code": 41,
    "name": "基山町",
    "capital": false,
    "name_kana": "キヤマチョウ"
  },
  {
    "code": "413453",
    "prefecture_code": 41,
    "name": "上峰町",
    "capital": false,
    "name_kana": "カミミネチョウ"
  },
  {
    "code": "413461",
    "prefecture_code": 41,
    "name": "みやき町",
    "capital": false,
    "name_kana": "ミヤキチョウ"
  },
  {
    "code": "413879",
    "prefecture_code": 41,
    "name": "玄海町",
    "capital": false,
    "name_kana": "ゲンカイチョウ"
  },
  {
    "code": "414018",
    "prefecture_code": 41,
    "name": "有田町",
    "capital": false,
    "name_kana": "アリタチョウ"
  },
  {
    "code": "414239",
    "prefecture_code": 41,
    "name": "大町町",
    "capital": false,
    "name_kana": "オオマチチョウ"
  },
  {
    "code": "414247",
    "prefecture_code": 41,
    "name": "江北町",
    "capital": false,
    "name_kana": "コウホクマチ"
  },
  {
    "code": "414255",
    "prefecture_code": 41,
    "name": "白石町",
    "capital": false,
    "name_kana": "シロイシチョウ"
  },
  {
    "code": "414417",
    "prefecture_code": 41,
    "name": "太良町",
    "capital": false,
    "name_kana": "タラチョウ"
  }
]
