[
  {
    "code": "422011",
    "prefecture_code": 42,
    "name": "長崎市",
    "capital": true,
    "name_kana": "ナガサキシ"
  },
  {
    "code": "422029",
    "prefecture_code": 42,
    "name": "佐世保市",
    "capital": false,
    "name_kana": "サセボシ"
  },
  {
    "code": "422037",
    "prefecture_code": 42,
    "name": "島原市",
    "capital": false,
    "name_kana": "シマバラシ"
  },
  {
    "code": "422045",
    "prefecture_code": 42,
    "name": "諫早市",
    "capital": false,
    "name_kana": "イサハヤシ"
  },
  {
    "code": "422053",
    "prefecture_code": 42,
    "name": "大村市",
    "capital": false,
    "name_kana": "オオムラシ"
  },
  {
    "code": "422070",
    "prefecture_code": 42,
    "name": "平戸市",
    "capital": false,
    "name_kana": "ヒラドシ"
  },
  {
    "code": "422088",
    "prefecture_code": 42,
    "name": "松浦市",
    "capital": false,
    "name_kana": "マツウラシ"
  },
  {
    "code": "422096",
    "prefecture_code": 42,
    "name": "対馬市",
    "capital": false,
    "name_kana": "ツシマシ"
  },
  {
    "code": "422100",
    "prefecture_code": 42,
    "name": "壱岐市",
    "capital": false,
    "name_kana": "イキシ"
  },
  {
    "code": "422118",
    "prefecture_code": 42,
    "name": "五島市",
    "capital": false,
    "name_kana": "ゴトウシ"
  },
  {
    "code": "422126",
    "prefecture_code": 42,
    "name": "西海市",
    "capital": false,
    "name_kana": "サイカイシ"
  },
  {
    "code": "422134",
    "prefecture_code": 42,
    "name": "雲仙市",
    "capital": false,
    "name_kana": "ウンゼンシ"
  },
  {
    "code": "422142",
    "prefecture_code": 42,
    "name": "南島原市",
    "capital": false,
    "name_kana": "ミナミシマバラシ"
  },
  {
    "code": "423076",
    "prefecture_code": 42,
    "name": "長与町",
    "capital": false,
    "name_kana": "ナガヨチョウ"
  },
  {
    "code": "423084",
    "prefecture_code": 42,
    "name": "時津町",
    "capital": false,
    "name_kana": "トギツチョウ"
  },
  {
    "code": "423211",
    "prefecture_code": 42,
    "name": "東彼杵町",
    "capital": false,
    "name_kana": "ヒガシソノギチョウ"
  },
  {
    "code": "423220",
    "prefecture_code": 42,
    "name": "川棚町",
    "capital": false,
    "name_kana": "カワタナチョウ"
  },
  {
    "code": "423238",
    "prefecture_code": 42,
    "name": "波佐見町",
    "capital": false,
    "name_kana": "ハサミチョウ"
  },
  {
    "code": "423831",
    "prefecture_code": 42,
    "name": "小値賀町",
    "capital": false,
    "name_kana": "オヂカチョウ"
  },
  {
    "code": "423912",
    "prefecture_code": 42,
    "name": "佐々町",
    "capital": false,
    "name_kana": "サザチョウ"
  },
  {
    "code": "424111",
    "prefecture_code": 42,
    "name": "新上五島町",
    "capital": false,
    "name_kana": "シンカミゴトウチョウ"
  }
]
