[
  {
    "code": "442011",
    "prefecture_code": 44,
    "name": "大分市",
    "capital": true,
    "name_kana": "オオイタシ"
  },
  {
    "code": "442020",
    "prefecture_code": 44,
    "name": "別府市",
    "capital": false,
    "name_kana": "ベップシ"
  },
  {
    "code": "442038",
    "prefecture_code": 44,
    "name": "中津市",
    "capital": false,
    "name_kana": "ナカツシ"
  },
  {
    "code": "442046",
    "prefecture_code": 44,
    "name": "日田市",
    "capital": false,
    "name_kana": "ヒタシ"
  },
  {
    "code": "442054",
    "prefecture_code": 44,
    "name": "佐伯市",
    "capital": false,
    "name_kana": "サイキシ"
  },
  {
    "code": "442062",
    "prefecture_code": 44,
    "name": "臼杵市",
    "capital": false,
    "name_kana": "ウスキシ"
  },
  {
    "code": "442071",
    "prefecture_code": 44,
    "name": "津久見市",
    "capital": false,
    "name_kana": "ツクミシ"
  },
  {
    "code": "442089",
    "prefecture_code": 44,
    "name": "竹田市",
    "capital": false,
    "name_kana": "タケタシ"
  },
  {
    "code": "442097",
    "prefecture_code": 44,
    "name": "豊後高田市",
    "capital": false,
    "name_kana": "ブンゴタカダシ"
  },
  {
    "code": "442101",
    "prefecture_code": 44,
    "name": "杵築市",
    "capital": false,
    "name_kana": "キツキシ"
  },
  {
    "code": "442119",
    "prefecture_code": 44,
    "name": "宇佐市",
    "capital": false,
    "name_kana": "ウサシ"
  },
  {
    "code": "442127",
    "prefecture_code": 44,
    "name": "豊後大野市",
    "capital": false,
    "name_kana": "ブンゴオオノシ"
  },
  {
    "code": "442135",
    "prefecture_code": 44,
    "name": "由布市",
    "capital": false,
    "name_kana": "ユフシ"
  },
  {
    "code": "442143",
    "prefecture_code": 44,
    "name": "国東市",
    "capital": false,
    "name_kana": "クニサキシ"
  },
  {
    "code": "443221",
    "prefecture_code": 44,
    "name": "姫島村",
    "capital": false,
    "name_kana": "ヒメシマムラ"
  },
  {
    "code": "443417",
    "prefecture_code": 44,
    "name": "日出町",
    "capital": false,
    "name_kana": "ヒジマチ"
  },
  {
    "code": "444618",
    "prefecture_code": 44,
    "name": "九重町",
    "capital": false,
    "name_kana": "ココノエマチ"
  },
  {
    "code": "444626",
    "prefecture_code": 44,
    "name": "玖珠町",
    "capital": false,
    "name_kana": "クスマチ"
  }
]
