[
  {
    "code": "462012",
    "prefecture_code": 46,
    "name": "鹿児島市",
    "capital": true,
    "name_kana": "カゴシマシ"
  },
  {
    "code": "462039",
    "prefecture_code": 46,
    "name": "鹿屋市",
    "capital": false,
    "name_kana": "カノヤシ"
  },
  {
    "code": "462047",
    "prefecture_code": 46,
    "name": "枕崎市",
    "capital": false,
    "name_kana": "マクラザキシ"
  },
  {
    "code": "462063",
    "prefecture_code": 46,
    "name": "阿久根市",
    "capital": false,
    "name_kana": "アクネシ"
  },
  {
    "code": "462080",
    "prefecture_code": 46,
    "name": "出水市",
    "capital": false,
    "name_kana": "イズミシ"
  },
  {
    "code": "462101",
    "prefecture_code": 46,
    "name": "指宿市",
    "capital": false,
    "name_kana": "イブスキシ"
  },
  {
    "code": "462136",
    "prefecture_code": 46,
    "name": "西之表市",
    "capital": false,
    "name_kana": "ニシノオモテシ"
  },
  {
    "code": "462144",
    "prefecture_code": 46,
    "name": "垂水市",
    "capital": false,
    "name_kana": "タルミズシ"
  },
  {
    "code": "462152",
    "prefecture_code": 46,
    "name": "薩摩川内市",
    "capital": false,
    "name_kana": "サツマセンダイシ"
  },
  {
    "code": "462161",
    "prefecture_code": 46,
    "name": "日置市",
    "capital": false,
    "name_kana": "ヒオキシ"
  },
  {
    "code": "462179",
    "prefecture_code": 46,
    "name": "曽於市",
    "capital": false,
    "name_kana": "ソオシ"
  },
  {
    "code": "462187",
    "prefecture_code": 46,
    "name": "霧島市",
    "capital": false,
    "name_kana": "キリシマシ"
  },
  {
    "code": "462195",
    "prefecture_code": 46,
    "name": "いちき串木野市",
    "capital": false,
    "name_kana": "イチキクシキノシ"
  },
  {
    "code": "462209",
    "prefecture_code": 46,
    "name": "南さつま市",
    "capital": false,
    "name_kana": "ミナミサツマシ"
  },
  {
    "code": "462217",
    "prefecture_code": 46,
    "name": "志布志市",
    "capital": false,
    "name_kana": "シブシシ"
  },
  {
    "code": "462225",
    "prefecture_code": 46,
    "name": "奄美市",
    "capital": false,
    "name_kana": "アマミシ"
  },
  {
    "code": "462233",
    "prefecture_code": 46,
    "name": "南九州市",
    "capital": false,
    "name_kana": "ミナミキュウシュウシ"
  },
  {
    "code": "462241",
    "prefecture_code": 46,
    "name": "伊佐市",
    "capital": false,
    "name_kana": "イサシ"
  },
  {
    "code": "462250",
    "prefecture_code": 46,
    "name": "姶良市",
    "capital": false,
    "name_kana": "アイラシ"
  },
  {
    "code": "463035",
    "prefecture_code": 46,
    "name": "三島村",
    "capital": false,
    "name_kana": "ミシマムラ"
  },
  {
    "code": "463043",
    "prefecture_code": 46,
    "name": "十島村",
    "capital": false,
    "name_kana": "トシマムラ"
  },
  {
    "code": "463922",
    "prefecture_code": 46,
    "name": "さつま町",
    "capital": false,
    "name_kana": "サツマチョウ"
  },
  {
    "code": "464040",
    "prefecture_code": 46,
    "name": "長島町",
    "capital": false,
    "name_kana": "ナガシマチョウ"
  },
  {
    "code": "464520",
    "prefecture_code": 46,
    "name": "湧水町",
    "capital": false,
    "name_kana": "ユウスイチョウ"
  },
  {
    "code": "464686",
    "prefecture_code": 46,
    "name": "大崎町",
    "capital": false,
    "name_kana": "オオサキチョウ"
  },
  {
    "code": "464821",
    "prefecture_code": 46,
    "name": "東串良町",
    "capital": false,
    "name_kana": "ヒガシクシラチョウ"
  },
  {
    "code": "464902",
    "prefecture_code": 46,
    "name": "錦江町",
    "capital": false,
    "name_kana": "キンコウチョウ"
  },
  {
    "code": "464911",
    "prefecture_code": 46,
    "name": "南大隅町",
    "capital": false,
    "name_kana": "ミナミオオスミチョウ"
  },
  {
    "code": "464929",
    "prefecture_code": 46,
    "name": "肝付町",
    "capital": false,
    "name_kana": "キモツキチョウ"
  },
  {
    "code": "465011",
    "prefecture_code": 46,
    "name": "中種子町",
    "capital": false,
    "name_kana": "ナカタネチョウ"
  },
  {
    "code": "465020",
    "prefecture_code": 46,
    "name": "南種子町",
    "capital": false,
    "name_kana": "ミナミタネチョウ"
  },
  {
    "code": "465054",
    "prefecture_code": 46,
    "name": "屋久島町",
    "capital": false,
    "name_kana": "ヤクシマチョウ"
  },
  {
    "code": "465232",
    "prefecture_code": 46,
    "name": "大和村",
    "capital": false,
    "name_kana": "ヤマトソン"
  },
  {
    "code": "465241",
    "prefecture_code": 46,
    "name": "宇検村",
    "capital": false,
    "name_kana": "ウケンソン"
  },
  {
    "code": "465259",
    "prefecture_code": 46,
    "name": "瀬戸内町",
    "capital": false,
    "name_kana": "セトウチチョウ"
  },
  {
    "code": "465275",
    "prefecture_code": 46,
    "name": "龍郷町",
    "capital": false,
    "name_kana": "タツゴウチョウ"
  },
  {
    "code": "465291",
    "prefecture_code": 46,
    "name": "喜界町",
    "capital": false,
    "name_kana": "キカイチョウ"
  },
  {
    "code": "465305",
    "prefecture_code": 46,
    "name": "徳之島町",
    "capital": false,
    "name_kana": "トクノシマチョウ"
  },
  {
    "code": "465313",
    "prefecture_code": 46,
    "name": "天城町",
    "capital": false,
    "name_kana": "アマギチョウ"
  },
  {
    "code": "465321",
    "prefecture_code": 46,
    "name": "伊仙町",
    "capital": false,
    "name_kana": "イセンチョウ"
  },
  {
    "code": "465330",
    "prefecture_code": 46,
    "name": "和泊町",
    "capital": false,
    "name_kana": "ワドマリチョウ"
  },
  {
    "code": "465348",
    "prefecture_code": 46,
    "name": "知名町",
    "capital": false,
    "name_kana": "チナチョウ"
  },
  {
    "code": "465356",
    "prefecture_code": 46,
    "name": "与論町",
    "capital": false,
    "name_kana": "ヨロンチョウ"
  }
]
